name,address,cross_street_reference,ward,contact_name,phone,phone_extension,email,website
A & A Daycare Centre,"3380 Midland Ave, 22",Midland/Finch E.,Scarborough-Agincourt,Angela McAloney,416-298-4489,,,
Abacus Montessori Learning Centre,2723 St Clair Ave E,,Beaches-East York,Olive Somasunderam,416-285-8613,,,abacusmontessori.ca
Abiona Centre For Infant And Early Mental Health Elc Broadview Campus,1102 Broadview Ave,Broadview/Mortimer,Toronto-Danforth,Farwa Batool,437-328-2816,,,
Abiona Centre For Infant And Early Mental Health Elc Humewood Campus,40 Humewood Dr,Christie/St. Clair,Toronto-St. Paul's,Sue Sinclair,416-651-5657,226,,
Aboriginal Head Start - Epnigishmok,"20 Bansley Ave, Rm 119/120",,Toronto-St. Paul's,Amanda Macewen,416-639-9036,,,nativechild.org
Absorbent Minds (Op1756925 Ontario Inc.),16 Old Kingston Rd,Old Kingston Rd./Morningside,Scarborough-Rouge Park,Huma Esmail,416-284-6286,,,absorbentminds.ca
Absorbent Minds 2,20 Old Kingston Rd,Old Kingston Rd./Morningside,Scarborough-Rouge Park,Aisha Bhatti,647-515-6286,,,absorbentminds.ca
Absorbent Years Childcare (Montessori),2737 Bayview Ave,Bayview Ave/Macdonald-Cartier,Don Valley West,Imanthi De Bellefeuille,416-502-1769,,,montessoried.ca
Absorbent Years Childcare Inc,128 Fairview Mall Dr,Sheppard Ave E/Don Mills Rd,Don Valley North,Imanthi De Bellefeuille,416-502-1769,,,montessoried.ca
After Four Children's Enrichment Program,10 Japonica Rd,Ellesmere/Pharmacy,Scarborough Centre,Sabrina Pallotta,416-446-7398,,,aceafterfour.ca
Agape Christian Montessori School (2236800 Ontario Inc.),301 Silver Star Blvd,Midland Ave/McNicoll Ave,Scarborough-Agincourt,Corie Tse,647-717-1800,,,agapecms.com
Agile Innovators Montessori,390 Bamburgh Cir,,Scarborough-Agincourt,Shena Xie,647-812-0520,,,aimontessori.ca
Agincourt Montessori School Inc.,2575 Midland Ave,Midland/Sheppard E.,Scarborough North,Kiera Thompson,416-291-0726,,,agincourtmontessori.org
Agincourt Temple Day Care(Governing Council Of The Salvation Army),3080 Birchmount Rd,Birchmount/Finch E.,Scarborough-Agincourt,Margaret Wong,416-497-0329,230,,
Air-O-Down Child Care Centre,7 Hawksdale Rd,Wilson/Keele,York Centre,Toni Tolomeo-Locantore,416-633-2014,,,
Albion Early Learning  & Child Care Centre,1545 Albion Rd,Albion/Kipling,Etobicoke North,Rosanna Taraborrelli,416-392-5083,,,toronto.ca/children/telccs
Albion Heights School Age YMCA,45 Lynmont Rd,Finch W./Martingrove,Etobicoke North,Susan Clarke,416-744-4265,,,ymcatoronto.org
Alderwood Action After School,544 Horner Ave,Horner/Browns Line,Etobicoke-Lakeshore,Reena Somani,416-259-7738,,,
Alexander Muir Gladstone Jr YMCA,108 Gladstone Ave,Queen W./Dufferin,Davenport,Sandra Santos,416-534-8454,,,
Alexandra Park Early Learning & Child Care Centre,75 Augusta Sq,Dundas/Spadina,Spadina-Fort York,Sonia Chavez A.,416-392-5515,,,toronto.ca/children/telccs
Alive Montessori & Private School,2 Wembley Rd,Eglinton Ave W/Bathurst,Eglinton-Lawrence,Krisztina Toth,416-602-1151,,, alivemontessori.com
All About Kids Inc. (1055 Gerrard Street East),1055 Gerrard St E,Gerrard/Jones,Toronto-Danforth,Samia Labib,416-463-5437,,,allaboutkids.ca
All About Kids Sheppard,"2005 Sheppard Ave E, Suite 115",Sheppard E./Victoria Park,Don Valley North,Kelsey Maccrimmon,416-496-3232,,,allaboutkids.ca
Allenby Day Care,391 St Clements Ave,Eglinton W./Avenue Rd.,Eglinton-Lawrence,Carol Mayne,416-487-7108,,,
All My Children Child Care,1590 Sandhurst Circle,Finch E./McCowan,Scarborough North,Wendy Chen,416-291-9200,,,allmychildrencc.ca
Alphabet Academy,111 Manor Rd E,,Toronto-St. Paul's,Jessica Lipinski,416-219-9021,,,alphabetacademy.ca
Alphabet Station,2206 Queen St E,,Beaches-East York,Kassandra Long,416-402-4702,,,alphabetstation.ca
Alphabet Treehouse Childcare Centre,1780 Avenue Rd,Avenue Rd/Wilson Ave,Eglinton-Lawrence,Elina Kompaniyets,416-548-7891,,,alphabettreehouse.com
Alternative Primary School Parent Group,1100 Spadina Rd,Spadina/Eglinton W.,Eglinton-Lawrence,Debra Deonarine,416-322-5385,,,apsdaycare.com
Alvin Curling YMCA,50 Upper Rouge Trail,Sheppard/Morningside,Scarborough-Rouge Park,Frances Garcia,416-287-8534,,,
Ancaster Early Learning & Child Care Centre,45 Ancaster Rd,Wilson/Dufferin,York Centre,Melissa Brown,416-392-5064,,,toronto.ca/children/telccs
"Ancaster Public School, Extended Day Program",44 Ancaster Rd,Wilson/Dufferin,York Centre,,416-394-2072,,edp@tdsb.on.ca,tdsb.on.ca/earlyyears/child-care/extended-day-programs
Angelgate Daycare Inc.,432 Runnymede Rd,Runnymede/Annette,Parkdale-High Park,Jennifer Tolentino,647-835-4546,,,angelgatedaycare.com
Angelgate Daycare Ltd. 230 Jane Street,230 Jane St,Jane St/Annette St,Parkdale-High Park,Katrina Tuzon,416-792-6243,,,angelgatedaycare.com
Angelgate Daycare Ltd. 232 Jane Street,232 Jane St,,Parkdale-High Park,Katrina Tuzon,416-792-6243,,,angelgatedaycare.com
Angus Valley Montessori,"4841 Yonge St, 100",,Willowdale,Samiksha  Nikki Gupta,416-723-1155,,,avmschools.com
Annex Montessori School,427 Bloor St W,,University-Rosedale,Amanda Hitch,416-994-0549,,,
Annunciation Catholic School Before & After Child Care Program,65 Avonwick Gate,Cassandra Blvd/Victoria Park,Don Valley East,Raveena Ravinthiran,647-289-8728,,,
Antica Village Children's Day Care Centre (646508 Ontario Ltd),360 Hullmar Dr,Steeles W./Jane,Humber River-Black Creek,Mandira Gupta,416-661-8666,,,
A Place To Play Nursery School Of Bloor West Village,680 Annette St,Annette/Jane,Parkdale-High Park,Kelly Adlam,416-767-6650,,,
Apple Day Care Centre,"3434 Eglinton Ave E, 102",Markham Rd/Eglinton Ave E,Scarborough-Guildwood,Jessica Charitable Dorizan,416-264-3158,,,
Apple Jacks Preschool,19 Benlamond Ave,,Beaches-East York,Cassie St Amand,416-690-9555,,,
Aquabella Child Care,75 Edgewater Dr,,Spadina-Fort York,Jessica Wong,416-645-6000,1158,,woodgreen.org
Arbor Glen Community Child Care Centre,55 Freshmeadow Dr,Steeles E./Don Mills,Don Valley North,Catherine Henderson,416-497-4040,,,
Armour Heights Child Care Program,"148 Wilson Ave, 108",Wilson/Avenue Rd.,Eglinton-Lawrence,Florence Kirchner,416-486-6881,,,
Ars Nursery School - Armenian Community Centre,45 Hallcrown Pl,,Don Valley North,Ani Tourosian,416-491-2210,1009,,arsarmenian.ca
Ascot Avenue Community Daycare,991 St Clair Ave W,St Clair Ave W/Oakwood Ave,Davenport,Teresa Gabriele-Peak,416-651-2275,,,
Ascot Avenue Community Day Care,95 Regal Rd,Davenport/Dufferin,Davenport,Meghan Kearns,416-653-7760,,,
Aspiring Academics Preschool Inc.,262 Woodfield Rd,,Toronto-Danforth,Jasmine Dale,416-889-9389,,,aspiringacademicspreschool.com
Aspiring Academics Preschool - Kingston,2372 Kingston Rd,,Scarborough Southwest,Jasmine Dale,416-889-9389,,,aspiringacademicspreschool.com
Aspiring Academics Preschool - Somerset,56 Somerset Ave,Davenport Rd/Somerset Ave,Davenport,Jasmine Dale,416-889-9389,,,aspiringacademicspreschool.com
Atelier Childcare Inc.,15 Oakmount Rd,,Parkdale-High Park,Jenna Niven,416-604-2442,,,atelierkids.com
Atelier Kids Inc.,21 Quebec Ave,,Parkdale-High Park,Jenna Niven,416-419-3864,,,atelierkids.com
Athletic Montessori Academy,890 Danforth Ave,Danforth Ave/Pape Ave,Toronto-Danforth,Charmaine Wright,647-679-0442,,, littledribblers.ca/montessori
Avalon Children's Montessori School,31 Wood Glen Rd,Kingston Rd./Warden,Scarborough Southwest,Christine Keery,416-690-7744,,,
Avenue Road Nursery School,1498 Avenue Rd,Avenue Rd./Lawrence,Eglinton-Lawrence,April Parrett,416-783-2773,,,graydonhallnurseryschools.com
Avondale Centre For Early Development,171 Avondale Ave,,Willowdale,Sheyda Manavi,416-941-2121,,,
"Avondale Public School, Extended Day Program",171 Avondale Ave,Willowdale Ave/Sheppard Ave,Willowdale,,416-394-2072,,edp@tdsb.on.ca,tdsb.on.ca/earlyyears/child-care/extended-day-programs
B.F. Toronto Centre For Early Childhood Education,45 Golfdown Dr,Islington/Hwy. 401,Etobicoke North,Kathleen Archer,416-746-6542,200,,
Bais Yaakov Elementary School,15 Saranac Blvd,,Eglinton-Lawrence,Chava  Miriam Neustadt,416-783-6181,182,,
Balmy Beach Community Day Care Centre,"14 Pine Ave, Room 107",Kingston Rd./Victoria Park,Beaches-East York,Christine Roberts,416-698-5668,,,
Bannockburn School,3080 Bayview Ave,,Willowdale,Isabella Foster,416-789-7855,307,,
Banting And Best Child Care Centre (380 Goldhawk),380 Goldhawk Trail,McCowan/McNicoll,Scarborough North,Ellen Mok,416-291-6163,,,
Banting And Best Schoolage Satellite(255 Alton Towers),255 Alton Towers Cir,McCowan/McNicoll,Scarborough North,Ellen Mok,416-291-6163,,,
Baycrest Child Care Centre,50 Ameer Ave,,Eglinton-Lawrence,Jasmine Livingstone,416-784-1316,,,icsg.ca
Bayview Gardens Day Care Centre,3125 Bayview Ave,Bayview/Finch,Don Valley North,Shuk Man Lo,416-222-9405,,,
Bayview Glen,275 Duncan Mill Rd,Don Mills Rd/York Mills Rd,Don Valley East,Gillian Potts-Hemingway,416-443-1030,287,,bayviewglen.ca
Beaches Montessori School Incorporated,950 Kingston Rd,,Beaches-East York,Leigh Anne Jacques,416-901-2992,,,beachesmontessori.com
Beaches Montessori School South,995 Kingston Rd,,Beaches-East York,Julie Mitchell,416-986-7553,,,
Beach Hill Montessori,2032 Gerrard St E,,Beaches-East York,Pilar Fuertes Martinez,647-228-0809,,,beachhillmontessori.com
Beamish Academy,3819 Bloor St W,Bloor St W/Kipling Ave,Etobicoke-Lakeshore,Deborah Andrade,416-233-5437,,,beamishkids.com
Beatty Buddies Daycare,55 Woodington Ave,Danforth/Coxwell,Beaches-East York,Lisa Winters,416-570-8687,,,
Beechgrove Sunshine Child Care,"4679 Kingston Rd, Unite 8 & 9",,Scarborough-Rouge Park,Danielle Rampulla,416-284-6523,,,
Bendale Licensed Before And After School Program,61 Benshire Dr,,Scarborough-Guildwood,Sanaa Maher,416-281-0262,230,,
Bennington Heights Child Care Centre,76 Bennington Heights Dr,Bayview/Moore,Don Valley West,Sarah Ptak,416-423-6522,,,benningtonheightscc.com
Berner Trail Early Learning & Child Care Centre,120 Berner Trail,Neilson/Sheppard,Scarborough North,Jennifer Connolly,416-392-6273,,,toronto.ca/children/telccs
"Berner Trail Junior Public School, Extended Day Program",120 Berner Trail,Neilson/Sheppard,Scarborough North,,416-394-2072,,edp@tdsb.on.ca,tdsb.on.ca/earlyyears/child-care/extended-day-programs
Bessborough Child Care Centre,211 Bessborough Dr,Bayview/Eglinton,Don Valley West,Jodi Kageyama,416-467-0389,,,
Beth Sholom First Foundations Community Preschool,1445 Eglinton Ave W,,Toronto-St. Paul's,Adriana Signoroni,416-432-2561,,,firstfoundationsjcp.org
Beverly Glen YMCA,85 Beverly Glen Blvd,,Scarborough-Agincourt,Maryam Sabri,647-438-6689,,,
Big Bears Daycare,"51 Durnford Rd, 2nd Floor",Sheppard/Kingston Rd.,Scarborough-Rouge Park,Ellsy Badibanga,416-778-8860,,,
Big Dreams Early Learning Centre,1703 Victoria Park Ave,Victoria Park Ave/Lawrence.,Scarborough Centre,Melissa Ireland,416-757-8040,,,
Birch Cliff Heights Licensed Before And After School Program,120 Highview Ave,,Scarborough Southwest,Sanaa Maher,416-281-0262,230,,
"Birch Cliff Public School, Extended Day Program",1650 Kingston Rd,Birchmount/Danforth,Scarborough Southwest,,416-394-2072,,edp@tdsb.on.ca,tdsb.on.ca/earlyyears/child-care/extended-day-programs
Birchmount Bluffs Neighbourhood Centre Community Nursery School,93 Birchmount Rd,Birchmount/Danforth Ave.,Scarborough Southwest,Erika Smith,416-396-4315,,,bbnc.ca
Birchmount Place Centre For Early Learning,2360 Birchmount Rd,Birchmount/Sheppard E.,Scarborough-Agincourt,Kiana Cummings,416-291-0304,221,,
Birds And Bees Day Care Centre,720 Kennedy Rd,Kennedy/Eglinton,Scarborough Southwest,Brenda Tripp,416-261-5741,,,
Blacksmith Child Care Centre,45 Blacksmith Cres,Jane/Steeles,Humber River-Black Creek,Harjit Bansal,416-665-3839,,,
Blake Street Early Learning & Child Care Centre,84 Blake St,Jones/Danforth,Toronto-Danforth,Aryana Nawabi,416-392-5055,,,toronto.ca/children/telccs
"Blake Street Junior Public School, Extended Day Program",21 Boultbee Ave,Jones/Gerrard,Toronto-Danforth,,416-394-2072,,edp@tdsb.on.ca,tdsb.on.ca/earlyyears/child-care/extended-day-programs
Blaydon Community Day Care Centre,25 Blaydon Ave,Keele/Wilson,York Centre,Anna Care,416-638-1461,,,blaydondaycare.com
Blessed Pier Giorgio Frassati Extended Day Program,8 Seasons Dr,Markham Rd/Steeles Ave E,Scarborough North,Nalini Jeewaraja,416-396-5757,,,
Blessed Trinity Before & After School,3205 Bayview Ave,Bayview/Finch,Don Valley North,Margaret Udo,416-226-3336,,,
Bloomsbury Academy,29 Dalhousie St,,Toronto Centre,Tara Silver,416-303-8263,,,
Bloorcourt Village Early Learning Centre,823 Dovercourt Rd,Bloor W./Dovercourt,Davenport,Sabina Jaunbocus,416-536-0574,,,bloorcourtvillageearlylearningcentre.ca
Bloor West Nursery School,432 Runnymede Rd,Runnymede/Annette St.,Parkdale-High Park,Laura Grimaldi,416-767-6729,103,,bloorwestnurseryschool.com
Blossoming Minds Learning Centre Inc.,1530 Danforth Ave,,Toronto-Danforth,Krista Dahlgren,416-546-9830,,,blossoming.ca
Blue Bell Academy,2189 Gerrard St E,Main St/Gerrard St,Beaches-East York,Evelyn Bell,416-550-4442,,,bluebellacademy.com
Blue Bell Academy Inc.,"2191 Gerrard St E, 1a",Gerrard St E/Main St,Beaches-East York,Evelyn Bell,416-550-4442,,,bluebellacademy.com
Blue Bell Academy Inc.,1415 Gerrard St E,,Toronto-Danforth,Evelyn Bell,416-550-4442,,,bluebellacademy.com
Bluebird Montessori School (Mini),"905 Broadview Ave, A",,Toronto-Danforth,Ingrid Siguenza,416-406-4066,,,bluebirdmontessori.ca
Bluebird Montessori School South,515 Broadview Ave,,Toronto-Danforth,Unnita Chatterjee,416-606-3398,,,bluebirdmontessori.ca
Blue Butterfly Montessori School Inc.,"300 Richmond St W, 100",Richmond W./John St.,Spadina-Fort York,Maryam Doaei,416-479-0202,,,bluebutterflyms.ca
Blue Wave Child Care Centre,50 Duncairn Rd,Lawrence/Don Mills,Don Valley East,Sarita Singh,416-445-0602,,,
Bluffer's Park Montessori School,2857 Kingston Rd,Kingston Rd/St. Clair Ave. E,Scarborough Southwest,Mary Kapetanos,647-340-9099,,,
Boardwalk Montessori School Inc.,"1975 Queen St E, A",Queen/Woodbine,Beaches-East York,Joan Walder,416-691-6740,,,
Bonaventure Child Care Centre,295 Dufferin St,Dufferin/King St. W.,Spadina-Fort York,Tiffany Christophe,416-588-4318,,,icsg.ca
Boulton Avenue Child Care Centre,131 Broadview Ave,Broadview/Queen,Toronto-Danforth,Paula Smith,416-463-7625,,,
Bowmore,80 Bowmore Rd,Gerrard/Coxwell,Beaches-East York,Ada Antidormi,416-465-6678,,,
"Bowmore Road Junior And Senior Public School, Extended Day Program",80 Bowmore Rd,Gerrard/Coxwell,Beaches-East York,,416-394-2072,,edp@tdsb.on.ca,tdsb.on.ca/earlyyears/child-care/extended-day-programs
Braeburn Woods Day Care Centre,15 Tandridge Cres,Albion/Weston Rd,Etobicoke North,Karen Leroux,416-745-9472,,,
Brahms Early Learning & Child Care Centre,5 Brahms Ave,Don Mills/Finch,Don Valley North,Maryam Azizi,416-392-6262,,,toronto.ca/children/telccs
Branson Pre-School Ltd.,4866 Bathurst St,Bathurst/Finch,York Centre,Rajani Mathieswaran,416-635-6580,,,
Brian's Petit Amis,95 Brian Dr,Brian/Sheppard,Don Valley North,Vicki Rout,416-491-1231,,,bpacc.ca
Brian Drive School Age Program (YMCA),95 Brian Dr,Victoria Park/Sheppard,Don Valley North,Ann-Marie Sawyer,416-493-3008,,,
Briarcrest Child Care,60 Wellesworth Dr,Rathburn/Renforth,Etobicoke Centre,Rupinder Sidhu,416-620-9914,,,
Bridlegrove Daycare Centre,2575 Pharmacy Ave,Pharmacy/Finch,Scarborough-Agincourt,Illuminata Paiva,416-497-7667,,,
Bridlewood Jr YMCA,60 Bridlewood Blvd,Huntingwood/Warden,Scarborough-Agincourt,Eleni Costa,416-492-3364,,,
Bright Minds Childcare & Montessori School,"1450 O Connor Dr, Building #2, Unit 110",O'Connor Dr./Bermondsey,Beaches-East York,Nadira Shameem,416-755-0002,,,
Brightpath Academy - Davisville Village,1432 Bayview Ave,Bayview Ave/Davisville Ave,Don Valley West,Brianne Leitch,647-349-2229,,,brightpathkids.com
Brightpath Academy - Forest Hill,5 Glen Park Ave,,Eglinton-Lawrence,Kaitlyn Herman,647-547-2120,,,brightpathkids.com
Brightpath Academy - Leaside,235 McRae Dr,Laird/Eglinton,Don Valley West,Laile Esguerra,647-340-3688,,,brightpathkids.com
Brightpath Academy - The Beach,"1925 Queen St E, 1923",,Beaches-East York,Dorie Heffron,416-640-9625,,,brightpathkids.com
Brightpath Academy - The Beach Clubzone,"1921 Queen St E, 1919",,Beaches-East York,Dorie Heffron,416-640-9625,,,brightpathkids.com
Brightpath Academy - Wanless Park (18),18 Melrose Ave,Yonge/Lawrence E.,Eglinton-Lawrence,Jennifer Halliwell,416-485-5437,,,brightpathkids.com
Brightpath Academy - Wanless Park (20),20 Melrose Ave,Yonge/Lawrence E.,Eglinton-Lawrence,Jennifer Halliwell,416-485-5437,,,brightpathkids.com
Brightpath Eglinton,"5535 Eglinton Ave W, 200",Eglinton Ave/Centennial Park,Etobicoke Centre,Shannon Rebelo,416-742-3535,,,brightpathkids.com
Brightpath Leslieville,"970 Queen St E, 2nd Floor",Carlaw Ave/Queen St E,Toronto-Danforth,Sarah Martin,416-477-0857,,,brightpathkids.com
Brimley Bloom Montessori,614 Brimley Rd,,Scarborough Centre,Monina Navarrete,647-766-5769,,,kiddiekidz.ca
Brimwood School Age YMCA,151 Brimwood Blvd,Brimley/Finch,Scarborough North,Amy Chang,416-293-7326,,,
"Broadacres Junior School, Extended Day Program",45 Crendon Dr,Renforth/Burnhamthorpe,Etobicoke Centre,,416-394-2072,,edp@tdsb.on.ca,tdsb.on.ca/earlyyears/child-care/extended-day-programs
Broadlands School Age Program YMCA,106 Broadlands Blvd,Victoria Park/Lawrence,Don Valley East,Eleni Costa,416-492-3364,,,
Broad View French Montessori School,903 Pape Ave,,Toronto-Danforth,Michelle Altmid,416-467-1618,,,broadviewmontessori.com
Broad View French Montessori School II Limited,1236 Kingston Rd,Kingston Rd./Fallingbrook,Scarborough Southwest,Latife Emin,416-690-9305,,,broadviewfrenchmontessori.ca
Brock Early Learning Centre,93 Margueretta St,College/Dufferin,Davenport,Claudia Gardiman,416-535-3491,,,
Brookhaven Child Care,70 Brookhaven Dr,Black Creek/Lawrence W.,York South-Weston,Marisa Manduca,416-249-6587,,,
Brookhaven Child Care -  St. Bernard Site,12 Duckworth St,Jane/Lawrence,York South-Weston,Marisa Manduca,416-249-6587,,,
"Brookmill Boulevard Junior Public School, Extended Day Program",25 Brookmill Blvd,Warden Ave/Finch Ave E,Scarborough-Agincourt,,416-394-2072,,edp@tdsb.on.ca,tdsb.on.ca/earlyyears/child-care/extended-day-programs
Brookside Child Care Centre,75 Oasis Blvd,Tapscott Rd./Passmore Ave.,Scarborough North,Nalini Jeewaraja,416-396-5757,,,familydaycare.com
Bruce Woodgreen Early Learning Centre,51 Larchmount Ave,Pape/Queen,Toronto-Danforth,Jessica Wong,416-645-6000,1158,,woodgreen.org
Buchanan Extended Day & School Age Program,4 Bucannan Rd,Warden Ave/Lawrence Ave E,Scarborough Centre,Mary Gatti,647-669-6201,,,
Buds And Blossoms,"517 Parliament St, 2",,Toronto Centre,Sarah Feng,416-655-0695,,,
Bumble Bee Academy,"668 Kingston Rd, Unit 1",,Beaches-East York,Shawna Titus,416-690-2221,,,
Bumble Bee Academy,"1560 Queen St E, 101, 102, 201",,Toronto-Danforth,Krista Campbell-Merriam,416-462-0106,,,
Bumble Bee Garden Child Care Ltd.,1275 Dundas St W,,Davenport,Zafira Karmali,416-532-0275,,,bumblebeegarden.ca
C.A.S.P. Catholic After School Program,53 Gracefield Ave,Lawrence Ave. W./Keele,York South-Weston,Jennifer Tulloch-Lewin,416-707-0558,,,
C.D.Farquharson Jr YMCA,1965 Brimley Rd,Brimley/Pitfield,Scarborough North,Jameelah Cayenne,647-438-7124,,,
Calico Saints Child Care Centre,35 Calico Dr,Sheppard W./Jane,York Centre,Robert Gordon,416-741-8499,,,
Cambridge Leaf Montessori School,"3875 McNicoll Ave, 100-103",Markham Rd/McNicoll Ave,Scarborough North,Nighat Shaheen,416-771-6695,,,cambridgeleaf.ca
Cambridge Place Centre For Early Learning,30 Denton Ave,Victoria Park/Danforth Ave.,Scarborough Southwest,Niroshanki Nallathamby,416-699-9636,221,,cfel.ca
Campus Community Co-Operative Day Care,370 Huron St,Bloor/St. George,University-Rosedale,Cathy Stevenson,416-946-0875,,,
Canadiana Court Early Learning & Child Care Centre,20 Gordonridge Pl,Midland/Danforth,Scarborough Southwest,Isaiah Noel,416-392-5698,,,toronto.ca/children/telccs
Candy Factory Swallows Day Care (The),1411 Bloor St W,Bloor W./Symington,Davenport,Blair Spence,416-537-4154,,,candyfactorydaycare.com
Cardinal Leger Child Care Centre (Scarborough),600 Morrish Rd,Ellesmere/Morningside,Scarborough-Rouge Park,Tanya Zundel,416-287-0578,,,cardinallegerchildcare.com
Carefree Preschool,370 Dixon Rd,Dixon/Kipling,Etobicoke North,Emily Persaud,416-244-5529,,,
Carleton Village Early Learning Centre,315 Osler St,Davenport/Symington,Davenport,Sara Martins,416-658-8886,,,
Carmelite Missionary Sisters Of Saint Theresa Of The Child Jesus,1196 Wilson Ave,Keele/Wilson,York Centre,Sr. Suzana Tairo,416-636-6123,,,
Carousel Child Care Development Centre,"623 Finch Ave W, 101",Finch W./Wilmington,York Centre,Bella Abramovich,416-636-0614,,,carouselchildcare.ca
Casa Del Zotto Children's Centre,3010 Dufferin St,Dufferin/Lawrence,Eglinton-Lawrence,Bosompemaa Apea-Dankwa,416-819-2186,,,
Casa Vera Montessori School,2000 Keele St,Keele St./Gulliver Rd.,York South-Weston,Viera Scurova,416-850-9705,,,casaverams.com
Cast For Kids Child Care Centre,1430 Sheppard Ave W,Sheppard W./Keele,York Centre,Anna Maria Storto,416-638-4487,,,castforkids.com
Castlebar YMCA,70 Chartwell Rd,Islington Ave/Ambleside Ave,Etobicoke-Lakeshore,Monica Buslon,416-917-8900,,,
Castle Park Playschool,"1971 Queen St E, Unit 102, 103",Queen E/Woodbine,Beaches-East York,Ella Dembeck,647-501-6751,,,castleparkplayschool.ca
Caterpillar & Co,55 Chauncey Ave,Kipling/Norseman,Etobicoke-Lakeshore,Sally Petrie,416-239-2888,,,caterpillarco.com
Cedarbrae Day Nurseries (20 Greencrest),20 Greencrest Circt,Markham/Lawrence,Scarborough-Guildwood,Tracy Rushton,416-431-2504,,,
Cedarbrae Day Nursery,1385 Midland Ave,Midland/Lawrence E.,Scarborough Centre,Joanne Bavaro,416-751-0664,,,
Cedarbrae Day Nursery (1375 Midland),1375 Midland Ave,Midland/Lawrence E.,Scarborough Centre,Emily Emanuel,416-751-2358,,,
"Cedarvale Community School, Extended Day Program",145 Ava Rd,Glen Cedar Road/Ava Road,Toronto-St. Paul's,,416-394-2072,,edp@tdsb.on.ca,tdsb.on.ca/earlyyears/extended-day-program
Centenary Seven Oaks  Early Learning & Child Care Centre,9 Neilson Rd,Ellesmere/Neilson Rd.,Scarborough-Guildwood,Susan Hill,416-392-4750,,,toronto.ca/children/telccs
Centennial College Early Childhood Education Centre(550 Mortimer),550 Mortimer Ave,Mortimer/Coxwell,Toronto-Danforth,Rick Nankissoor,416-289-5065,,,
Centennial College East York Day Care (Plains Rd),175 Plains Rd,Coxwell/O'Connor,Toronto-Danforth,Rick Nankissoor,416-289-5065,,,
Centennial College Progress Campus Child Care Centre,941 Progress Ave,Markham/Hwy. 401,Scarborough-Guildwood,Janet Burchert,416-289-5065,,,
Centennial Infant And Child Centre,1580 Yonge St,Yonge/St. Clair,Toronto-St. Paul's,Racquel Manzano,416-935-0200,261,,
Central Eglinton Childrens' Centre,223 Eglinton Ave E,Eglinton/Mt. Pleasant,Toronto-St. Paul's,Kristen Dubois,416-440-0383,,,
Central Montessori School,180 Sheppard Ave E,Yonge St/Sheppard Ave E,Willowdale,Nabila Affonso Sieglett,416-221-3289,,,cmschool.net
Central Montessori Schools - Maplehurst Campus,181 Maplehurst Ave,Sheppard Ave E/Willowdale Ave,Willowdale,Pravita Lakhani,416-222-9207,,,cmschool.net
Central Montessori Schools - Willowdale Campus,157 Willowdale Ave,Willowdale Ave./Sheppard E.,Willowdale,Danyu Echo Lou,416-250-1022,,,
Central Montessori Schools - York Mills Campus,18 Coldwater Rd,Leslie/York Mills,Don Valley East,Ahmed Ayesha,416-510-1200,,,cmschool.net
Centre De La Petite Enfance - Les Amis Du Monde,55 Pelham Ave,Dundas/Dupont,Davenport,Regine Epolo-Mayela,416-410-2232,,,
Centro Clinton Day Care Centre,460 Manning Ave,College/Bathurst,University-Rosedale,Maria Azevedo,416-537-5841,,,
Chabad Lubavitch Of York Mills,2437 Bayview Ave,Bayview Ave/York Mills Rd,Don Valley West,Rivky Gansburg,416-551-9391,,,
Chabad Of Midtown,"1034 St Clair Ave W, 1036",,Davenport,Dvora Deitsch,416-516-2005,,,chabadmt.com
Chabad Of Midtown - Bathurst,1344 Bathurst St,Bathurst/Davenport Rd,Toronto-St. Paul's,Dvora Deitsch,416-516-2005,,,chabadmt.com
Chabad Of Midtown - St Clair,"546 St Clair Ave W, 544",,Toronto-St. Paul's,Dvora Deitsch,416-516-2005,,,
Champions Children's Centre,9 Grenoble Dr,Don Mills/Eglinton,Don Valley East,Annabel Emore,416-467-5983,,,
Charlottetown Blvd. Childcare Centre,"111 Island Rd, Unit #5",Port Union Rd./Hwy. 401,Scarborough-Rouge Park,Cheryl Hafenbrack,416-724-0147,,,
Charlottetown Kindergarten Extended Care Program,85 Charlottetown Blvd,Charlottetown Blvd/Centennial,Scarborough-Rouge Park,Sanaa Maher,416-281-0262,230,,
Chartland Child Care Inc,109 Chartland Blvd S,Brimley/Huntingwood,Scarborough North,Susan Tom,416-292-7278,,,
Cheer Day Care Centre,3300 Kennedy Rd,Kennedy/McNicoll,Scarborough-Agincourt,Petty Yang,416-292-4720,,,
Chester Jr YMCA,115 Gowan Ave,Broadview/Gowan,Toronto-Danforth,Sherry Feeney,416-421-8101,,,ymcatoronto.org
Chester Le Early Learning & Child Care Centre,201 Chester Le Blvd,Victoria Park/Finch Ave E,Scarborough-Agincourt,Helen Kwak,416-338-0715,,,toronto.ca/children/telccs
Children's Circle Of St. Barnabas,361 Danforth Ave,,Toronto-Danforth,Michelle Strople,416-461-5151,6,,childrenscircledaycare.com
Children's Creative Corner Co-Op Nursery School,"125 Evelyn Cres, Rm. 234",Runnymede/Bloor,Parkdale-High Park,Aislinn Schwartz,416-769-4938,,,
Children's Garden Junior School - Early Start,670 Eglinton Ave E,Eglinton E./Bayview,Don Valley West,Marie Bates,416-423-5017,,,childrensgardenschool.com
Children's Garden Nursery School,1847 Bayview Ave,Bayview Ave/Eglinton Ave E,Don Valley West,Pauline Foulkes,416-488-4298,,,
Children's Land Learning Centre Inc.,297 Old Kingston Rd,,Scarborough-Rouge Park,Yinna Wu,416-826-1412,,,
Children's Magic Moments Child Care And Nursery School,98 Braemar Ave,Avenue Rd./Eglinton W.,Toronto-St. Paul's,Francesca Adamo,416-488-0114,,,childrensmagicmoments.com
Children's Playgarden /Toronto Military Family Resource Centre,5 Yukon Lane,William R. Allen/Sheppard W.,York Centre,Colleen Marback,416-633-6200,4312,,familyforce.ca
Children's Primary Centre,177 Beverley St,Beverley/College,University-Rosedale,Stephanie Ling,416-977-1204,,,
Children's Village Day Care Centre #1,1050 Markham Rd,Markham/Ellesmere,Scarborough-Guildwood,Enza Diminno,416-438-3355,,,edukids.ca
Children's Village Day Care Centre #3,225 Markham Rd,Markham/Eglinton E.,Scarborough-Guildwood,Sadia Noori,416-267-9677,,,
Children Are People Education,"272 Codsell Ave, 3rd Floor",Sheppard/Wilson Heights,York Centre,Heather Silverson,416-633-8831,,,icsg.ca
Children Of Tomorrow,425 McCowan Rd,McCowan Rd/Eglinton Ave E,Scarborough Centre,Maltee Ramkissoon,416-261-9893,,,
Children Of Tomorrow - John McCrae,431 McCowan Rd,Danforth Rd/Eglinton,Scarborough Centre,Nicola Greenland,416-261-9893,,,
Childspace Day Care Corporation # 1 (50 Woodmount),50 Woodmount Ave,Danforth Ave./Woodbine,Beaches-East York,Charlotte Risk,416-425-7763,,,
Childspace Day Care Corporation # 2 (690 Carlaw),690 Carlaw Ave,Carlaw/Danforth Ave,Toronto-Danforth,Rochelle Davis,416-469-0560,,,
Childspace Day Care Corporation # 3 (49 Felstead Avenue),49 Felstead Ave,Danforth Ave./Greenwood,Toronto-Danforth,Jannatul Ferdous,416-469-9766,,,
Chine Drive Licensed Before And After School Program,51 Chine Dr,,Scarborough Southwest,Sanaa Maher,416-281-0262,230,,
Churchill Chums School Age Child Care Centre,188 Churchill Ave,Senlac/Finch,Willowdale,Catherine Di Domenico,416-221-5923,,,
Church Street School Day Care Service Inc.,83 Alexander St,Church/Carlton,Toronto Centre,Marteina Slewa,416-925-1197,,,churchstreetccc.org
City Kids Early Learning & Child Care Centre,34 Bathurst St,Bathurst/Front St. W.,Spadina-Fort York,Amrit Bains,416-392-0932,,,toronto.ca/children/telccs
Clairlea Child Care Centre,25 Rosalind Cres,,Scarborough Southwest,Michelle Wang,416-389-2925,,,
Clearview Child Care Centre,"1300 Don Mills Rd, 211-215, 201",Don Mills Rd/Bond Avenue,Don Valley East,Dongzhen Pang,647-898-1883,,,
Cliffwood Community Child Care,140 Cliffwood Rd,Don Mills/Steeles E.,Don Valley North,Nancy Wilson,416-490-8848,,,cliffwoodchildcare.ca
Cole Street Early Learning & Child Care Centre,10 Cole St,Parliament/Dundas,Toronto Centre,Zorica Macos,416-392-5866,,,toronto.ca/children/telccs
Columbus Early Learning Centres,340 Falstaff Ave,Keele/Hwy. 401,York South-Weston,Courtney Scott,416-819-2186,,,columbuscentre.org
Columbus Early Learning Centres - Regina Mundi,60 Playfair Ave,Dufferin/Lawrence,Eglinton-Lawrence,Tina Fraga,416-789-7011,222,,
Columbus Early Learning Centres - St Charles,50 Claver Ave,Lawrence Ave W/Dufferin St,Eglinton-Lawrence,Ana Carina Costa,416-717-0355,,,
Columbus Early Learning - St Raphael,3 Gade Dr,Keele St/Wilson St,York Centre,Ronalyn Doria,416-819-2186,,,
Community Centre 55-Adam Beck,400 Scarborough Rd,Victoria Park/Gerrard E.,Beaches-East York,Narni Santos,416-691-1113,231,,centre55.com
Community Centre 55 - Children Services (97 Main Street),97 Main St,Main/Gerrard,Beaches-East York,Narni Santos,416-691-1113,231,,centre55.com
Community Centre 55 - Kimberly Public School,50 Swanwick Ave,Main/Gerrard,Beaches-East York,Narni Santos,416-691-1113,231,,centre55.com
Community Centre 55 -Ted Reeves Arena,175 Main St,Main/Gerrard,Beaches-East York,Narni Santos,416-691-1113,231,,
Cottingham Child Care Centre,85 Birch Ave,Yonge/Summerhill,Toronto-St. Paul's,Eric Mackey,416-929-6841,,,
Cougar Court Child Care Centre 15,"3225 Eglinton Ave E, 109",Eglinton E./Markham,Scarborough-Guildwood,Kathy Mitchell,416-267-0366,,,
Cougar Court Child Care Centre 25,"3225 Eglinton Ave E, 109",Eglinton E./Markham,Scarborough-Guildwood,Kathy Mitchell,416-267-0366,,,
Courtleigh Place Child Care Centre,135 Fenelon Dr,Don Mills/York Mills,Don Valley East,Maria Hosein,416-446-2875,,,
Coxwell Early Learning & Child Care Centre,1631 Queen St E,Queen E./Coxwell,Beaches-East York,Jordan Oneil,416-392-5076,,,toronto.ca/children/telccs
Creative Minds Montessori Academy,"285 Lawson Rd, Unit 101",,Scarborough-Rouge Park,Mohamed Shaideen,647-347-6068,,,creativemindsmontessoriacademy.ca
Crestview School Age Program YMCA,101 Seneca Hill Dr,Don Mills/Finch,Don Valley North,Sham Dhanji,416-225-7773,440,,
Curious Caterpillars - College View,28 College View Ave,Avenue Rd/Eglinton Ave W,Toronto-St. Paul's,Marcia Ferreira,647-344-8681,,,curiouscaterpillars.ca
Curious Caterpillars - Petman Avenue,87 Petman Ave,Eglinton/Mt. Pleasant,Don Valley West,Ashley Cammisa,647-501-7386,,,curiouscaterpillars.ca
Curlew Montessori School,81 Curlew Dr,Lawrence E./Victoria Park,Don Valley East,Raihana Mohideen,416-385-7373,,,curlewmontessori.com
Dalemount Child Care,101 Englemount Ave,Glencairn Ave./Bathurst,Eglinton-Lawrence,Nancy Kuipers,416-781-9493,,,
Dandylion Childcare Centre,53 Donlands Ave,Donlands/Danforth Ave.,Toronto-Danforth,Patrina Stathopoulos,416-469-0091,,,dandylion.ca
Danforth Early Learning & Child Care Centre,1125 Danforth Ave,Danforth Ave./Greenwood Ave.,Toronto-Danforth,Sandrina Barrock-Lavia,416-392-5070,,,toronto.ca/children/telccs
Danforth Gardens Playcare,20 Santamonica Blvd,Birchmount Rd/Danforth Rd,Scarborough Southwest,Bridgette Rivaldo,416-755-9215,252,,
Davenport Perth Early Learning & Child Care Centre,1900 Davenport Rd,Old Weston Rd./Davenport,Davenport,Miroslawa Sokolicz,416-392-5066,,,toronto.ca/children/telccs
David Lewis Jr YMCA,130 Fundy Bay Blvd,Birchmount/McNicoll,Scarborough-Agincourt,Yvonne Lin,416-490-1624,,,
Davisville Care Programme Inc.,50 Davisville Ave,,Toronto-St. Paul's,Lizbeth Lascano,416-487-7479,,,
Dawes Road Centre For Early Learning,391 Dawes Rd,Dawes Rd/Victoria Park,Beaches-East York,Sabrina Pallotta,416-755-8348,221,,
Daystrom Childcare Centre,25 Daystrom Dr,,Humber River-Black Creek,Eftychia Ntanou,647-289-1392,,,
Dearham Wood Daycare,66 Dearham Wood,Galloway Rd./Guildwood Prky.,Scarborough-Guildwood,Jessica Finlay,416-283-7207,,,dearhamwooddaycare.com
Denisa Childcare,1065 College St,,Davenport,Ilda Dukaj,416-535-2228,,,denisachildcare.com
Denlow Community Child Care Centre,50 Denlow Blvd,Leslie/York Mills,Don Valley West,Katherine Cheung,416-443-9394,,,denlowchildcare.ca
Denton Place Centres For Early Learning Inc.,30 Denton Ave,Danforth Ave./Victoria Park,Scarborough Southwest,Rose Ganzon,416-686-6445,221,,
Derrydown School Age YMCA,120 Derrydown Rd,Keele/Finch,Humber River-Black Creek,Rockey Persaud,437-225-8035,,,ymcagta.org
Dewson Street YMCA,65 Concord Ave,College St./Ossington,Davenport,Maxine Chodorowicz,416-536-1166,440,,
Dian Childcare Centre Inc.,283 Pharmacy Ave,Pharmacy/Danforth Ave.,Scarborough Southwest,Dorothy Amaechi,416-615-1141,,,
Discovering Minds Montessori Preschool Inc.,"828 Richmond St W, 100",Queen St W And Strachan Ave,Spadina-Fort York,Guadalupe Rengifo,416-504-0110,,discovering@dmmps.com,dmmps.com
Discovery Place Child Care Centre Ltd.,22 Tuxedo Crt,Markham/Hwy. 401,Scarborough-Guildwood,Arlene Rottine,416-439-0521,,,smartchild.ca
Distillery District Early Learning Centre,8 Distillery Lane,Front St. E./Parliament,Spadina-Fort York,Susana De Sousa,416-360-4042,,,distillerydistrictelc.com
Donald C. Macdonald Child Care Centre,116 Industry St,Black Creek/Trethewey Dr.,York South-Weston,Warsame Suad,416-769-2328,,,lefca.org
Don Mills Children's Centre,33 Kern Rd,Don Mills/York Mills,Don Valley East,Najma Jabeen,416-386-9744,,,
Don Valley Christian Child Care,25 Axsmith Cres,Don Mills/Van Horne,Don Valley North,Lisa Mathieu,416-491-6485,,,
Dover Gardens Nursery School,228 Bartlett Ave,Dupont St./Dufferin St.,Davenport,Nikki Pimentel,416-533-7337,,,dovergardens.ca
Downsview Child Care Centre,159 Sir William Hearst Ave,Keele St/Wilson Avenue,York Centre,Daniela Rodriguez-Iacchetta,647-722-8593,,,
"Downtown Alternative School, Extended Day Program",85 Lower Jarvis St,,Spadina-Fort York,,,,,
"Downtown Kids Academy, Inc.","905 King St W, Suite 101",King W./Strachan Ave.,Spadina-Fort York,Tracy Lund-Pedersen,416-345-9973,,,downtownkids.com
Downtown Montessori At Coatsworth (Formerly Ward Nine -Coatsworth),11 Coatsworth Cres,Coxwell/Danforth Ave.,Beaches-East York,Diana Atkinson,416-694-9444,,,daycareconnection.net
Downtown Montessori At Concord City Place,335 Bremner Blvd,Spadina/Bremner,Spadina-Fort York,Irene Irwin,416-623-1738,,,daycareconnection.net
Downtown Montessori At Infinity Place (Day Care Connection),26 Grand Trunk Cres,Bremner Blvd/Simcoe,Spadina-Fort York,Jerrica Paez,416-849-3691,,,daycareconnection.net
Downtown Montessori At Simcoe Place,200 Front St W,Front/Simcoe,Spadina-Fort York,Susan Servinos,416-340-8757,,,daycareconnection.net
Dr Eric Jackman Institute Of Child Study Laboratory School Nursery,45 Walmer Rd,,University-Rosedale,Chris Bogert,416-934-4512,,,
Dublin Heights Community Child Care,100 Bainbridge Ave,Sheppard W/Wilson Heights Bl,York Centre,Regina Wong,416-638-0612,0,,dhccc.ca
Dunlace Children's Centre,20 Dunlace Dr,Leslie/York Mills,Don Valley West,Sandra Wright-Weathered,416-445-7976,,,
Dunloe Children's Centre,78 Dunloe Rd,Spadina/Eglinton W.,Toronto-St. Paul's,Lisa Cohen,416-483-6559,,,
Earl Haig Community Day Care (15 Earl Haig Avenue),15 Earl Haig Ave,Danforth Ave./Coxwell,Beaches-East York,Kim Smith,416-694-9572,101,,
Early Adventures Nursery School & Child Care,200 Melrose St,Royal York/Evans,Etobicoke-Lakeshore,Jenny Lewis,416-251-5151,,,
Early Enrichment Day Care (St. John's West Toronto),288 Humberside Ave,Humberside/High Park,Parkdale-High Park,Theressa Amaral,416-762-8125,,,
Early Foundations Learning Centre,25 Thunder Grove,,Scarborough North,Aaida Ilizirov,416-299-0547,,,earlyfoundationslearningcentre.ca
Early Years Education System (E.Y.E.S),3000 Victoria Park Ave,Victoria Park/Finch Ave. E,Don Valley North,Alyona Gadzevych,416-498-5437,,,eyeschildcare.com
East Scarb. Boys' & Girls' Club - Eastside Child Care Centre,20 Waldock St,Galloway Rd./Kingston Rd.,Scarborough-Guildwood,Keisha Smith,416-287-0007,,,
East Scarb. Child Care Centre - East Scarb. Boys & Girls Club,230 Morningside Ave,Morningside/Lawrence E.,Scarborough-Guildwood,Keisha Smith,416-287-0007,,,
Eastside Club Day Care - 100 Galloway Road,100 Galloway Rd,,Scarborough-Guildwood,Savita Joseph,416-281-0262,238,,
East Toronto Village Children's Centre,43 Kimberley Ave,Gerrard/Main,Beaches-East York,Laurel Costa,416-694-1733,,,easttorontovillage.com
East York Montessori School,"486 Cosburn Ave, 484",,Toronto-Danforth,Melissa Petridis,416-888-3535,,,
Eco Kids-Child Care Centre Inc.,"1315 Kipling Ave, 601-1",Kipling Ave/Prince George Dr,Etobicoke Centre,Tracy Rocero,647-425-3245,,,ecokidschildcare.ca
"Ecole Bannockburn Public School, Extended Day Program",12 Bannockburn Ave,Wilson/Avenue Road,Eglinton-Lawrence,,,,,
Edgeley Early Learning & Child Care Centre,405 Driftwood Ave,Jane/Driftwood,Humber River-Black Creek,Nicola Wright,416-392-6271,,,toronto.ca/children/telccs
Educare Kindergarten - Islington,2825 Islington Ave,Islington/Finch W.,Humber River-Black Creek,Crystal Teeluck,416-749-0415,,,
Eh To Zed Preschool Canada Early Learning Academy,"3 Concorde Gate, 108",,Don Valley East,Dina Musa,416-447-6474,,,preschoolcanada.com
Eitz Chaim Schools Vm,2742 Bathurst St,,Eglinton-Lawrence,Marzel Limor,416-789-4366,,,
Elkhorn Junior Y - (YMCA),10 Elkhorn Dr,Bayview/Sheppard,Don Valley North,Rakhi Bhattacharya,647-985-4560,,,
"Ellesmere-Statton Public School, Extended Day Program",739 Ellesmere Rd,Birchmount/Ellesmere,Scarborough Centre,,416-394-2072,,edp@tdsb.on.ca,tdsb.on.ca/earlyyears/child-care/extended-day-programs
Emery Early Learning & Child Care Centre,3395 Weston Rd,Finch/Weston Rd.,Humber River-Black Creek,Amandeep Kaur Dhanoa,416-392-3370,,,toronto.ca/children/telccs
Engaging Minds Child Care,"29 Gervais Dr, 104",Wynford Dr/Don Mills Rd,Don Valley East,Kevin Wijesingha,647-830-4435,,,engagingmindschildcare.com
Enjoy Learning Centre,"27 Passmore Ave, Unit #1",Steeles E./Kennedy Rd.,Scarborough-Agincourt,Cecilia Ho-Leung,416-840-8488,,,
Enquiring Minds Montessori,24 Progress Ave,,Scarborough Centre,George Petropoulos,416-298-9938,,,enquiringmindsmontessori.com
Enriched Child Care Learning Centre,"6030 Bathurst St, Suite 115",Bathurst/Steeles W.,York Centre,Nadia Yaqub,416-650-5355,,,
Epiphany Of Our Lord Jr YMCA,3150 Pharmacy Ave,Pharmacy Ave./Finch Ave. E.,Scarborough-Agincourt,Ann-Marie Sawyer,416-493-3008,,,
Ernie Boccia Creative Child Day Care (Rasheda Alli),1 Northwestern Ave,Keele/Eglinton W.,York South-Weston,Samantha Hamid,416-653-6305,,,
Esterbrooke Child Care,"35 Esterbrooke Ave, Suite 111",Don Mills/Sheppard E.,Don Valley North,Fatemeh Ashtari,416-492-1109,,,
Ethennonnhawahstihnen Child Care Centre,100 Ethennonnhawahstihnen Lane,Leslie St/Sheppard Ave E,Don Valley North,Clermont Viviane,416-221-1116,,,
Etobicoke Montessori School,4 La Rose Ave,Eglinton W./Scarlett Rd.,Etobicoke Centre,Christina Zentena,416-246-9896,,,etobicokemontessorischool.ca
Eyes Abacus Child Care,20 Chichester Pl,,Scarborough-Agincourt,Niwsha Parsaeian,416-497-1474,,,
Eyet - Crescent Town Centre,2A The Market Pl,Victoria Park Ave/Danforth Av,Beaches-East York,Sara Stringer,647-696-4777,,,eyetfrp.ca
"Eyet Early Learning Centre,  Crescent Town Elementary School","4 Massey Sq, Rms 135 & 136",Victoria Park/Danforth Ave.,Beaches-East York,Christine Bouffard,416-690-0349,,,eyetfrp.ca
Eyet Early Learning Centre (Annies Place),"101 Barrington Ave, 120",Danforth Ave./Main,Beaches-East York,Razia Chowdhury,647-258-9988,,,eyetfrp.ca
Eyet Early Learning Centre (Tom's Place),"80 Sackville St, Room 105",Queen/Parliament,Toronto Centre,Jinnat Basher,416-668-7087,,,eyetfrp.ca
Fairbank Memorial Day Care Centre,555 Harvie Ave,Eglinton/Dufferin,Davenport,Ashraf Rahim,416-656-8675,,,
Fairmount Sunshine Child Care,31 Sloley Rd,Kingston Rd./McCowan,Scarborough Southwest,Kamilah States,416-265-3572,,,
Faith Lutheran Day Care Centre Of Downsview,96 Hucknall Rd,Finch/Keele,Humber River-Black Creek,Carron Allen,416-633-4718,,,
Falstaff Early Learning & Child Care Centre,10 Falstaff Ave,Jane/Wilson,York South-Weston,Tammy Lynn Borden,416-392-5688,,,toronto.ca/children/telccs
Family Day Kennedy Extended Day & School Age Program,20 Elmfield Cres,Warden Ave And Steeles Ave E,Scarborough-Agincourt,Shanthinie Edwards,416-297-9660,,,
Family Day Kingslake Before And After School Program,90 Kingslake Rd,,Don Valley North,Beth Brown,437-778-3521,,,
Family Day Muirhead Extended Day And School Age Program,25 Muirhead Rd,,Don Valley North,Beth Brown,437-778-3521,,,
Family Day North Agincourt Before And After School Program,60 Moran Rd,,Scarborough North,Beth Brown,437-778-3521,,,
Family Day Sacred Heart Toronto Before And After School Program,75 Hupfield Trail,,Scarborough-Rouge Park,Ivorie Pinto,416-298-6521,,,
Family Day St Barnabas Child Care Centre,30 Washburn Way,,Scarborough North,Ivorie Pinto,416-298-6521,,,
Family Day Thomas L Wells Extended Day And School Age Program,69 Nightstar Rd,,Scarborough-Rouge Park,Nalini Jeewaraja,416-396-5757,,,
Fantasia Child Care Center (2724826 Ontario Inc),678 Sheppard Ave W,,York Centre,Oleksandra Polonska,416-519-3400,,,fantasiachildcarecenter.com
Faywood Boulevard Child Care Centre,95 Faywood Blvd,Wilson Heights/Wilson Ave.,York Centre,Neyda Alvarez,416-633-8420,,,
Fenside Drive Children's Centre,131 Fenside Dr,Victoria Pk/York Mills,Don Valley East,Sue Schanderl,416-444-2441,,,uppercanadachildcare.com
Ferncliff Daycare And After School Group,128 Fern Ave,Roncesvalles/Queen W.,Parkdale-High Park,Dayna Drago,416-588-1463,,,
Finch Business Park Child Care,"1183A Finch Ave W, 100",Finch W./Keele St.,York Centre,Marissa Lazzaro,416-739-1478,,,
Finch Flyers Child Care Program,277 Finch Ave E,Finch W./Bayview,Willowdale,Elana Kuran,416-225-8778,,,
"Firgrove Public School, Extended Day Program",270 Firgrove Cres,Jane/Finch,Humber River-Black Creek,,416-394-2072,,edp@tdsb.on.ca,tdsb.on.ca/earlyyears/child-care/extended-day-programs
Firgrove Satellite Early Learning & Child Care Centre,270 Firgrove Cres,Jane/Finch,Humber River-Black Creek,Nicola Wright,416-392-6259,,,toronto.ca/children/telccs
First Stage - Burnhamthorpe,500 The East Mall,The East Mall/Burnhamthorpe,Etobicoke Centre,Ambreen Pirzada,416-394-7534,,,
First Stage Child Care Centre - Highfield,85 Mount Olive Dr,Kipling/Finch W.,Etobicoke North,Erica Catic-Kozo,416-746-6847,,,
First Stage - North Albion,2580 Kipling Ave,Kipling/Finch W.,Etobicoke North,Carly Buczkowski,416-394-4688,,,
First Stage - West Humber,1675 Martin Grove Rd,Martingrove/Finch W.,Etobicoke North,Rita Owusu-Afriyie,416-394-7515,,,
Flemingdon Early Learning & Child Care Centre,29 St Dennis Dr,Don Mills/Eglinton,Don Valley East,Aspasia - Stacy Charalambous,416-392-3170,,,toronto.ca/children/telccs
Fleming Junior YMCA,22 Littles Rd,Sheppard/Morningside,Scarborough-Rouge Park,Frances Garcia,416-287-8534,,,ymcatoronto.org
Follow The Child,"462 Birchmount Rd, Unit #20",Birchmount Rd./Danforth Rd.,Scarborough Southwest,Fareeha Aslam,647-347-7651,,,followthechild.webs.com
Forest Manor YMCA,25 Forest Manor Rd,Don Mills/Sheppard,Don Valley North,Christina Hanna,416-773-1958,,,
Frankland Day Care Centre,816 Logan Ave,Logan/Danforth Ave.,Toronto-Danforth,Micheline Richard,416-463-1413,,,franklanddaycare.ca
Fraser Mustard Early Learning Centre,82 Thorncliffe Park Dr,Overlea/Thorncliffe Pk Dr.,Don Valley West,Sophia Creary,416-421-7676,,,childdevelop.ca
Fraser School - Community Day Care Centre,79 Manning Ave,Queen W./Bathurst,Spadina-Fort York,Maria Lawrence,416-603-7372,,,
French Connection,40 Erskine Ave,Yonge/Eglinton,Don Valley West,Mariam Roghani,416-485-1678,,,
Friendly Little Campus (2037711 Ontario Ltd),"3255 Lawrence Ave E, A",Lawrence E./McCowan,Scarborough Centre,Arosha Karunathilake,416-431-3233,,,
Friendly Little Campus Daycare 2,63 Orchard Park Dr,Kingston Rd./Morningside,Scarborough-Rouge Park,Salma Rahman,416-282-5556,,,flcdaycare.com
Friends Day Care Centre,60 Lowther Ave,Bloor/Bedford,University-Rosedale,Lorna Meggitt,416-922-7022,,,friendsdaycare.ca
Future Stars Child Care Centre,3895 Lawrence Ave E,Lawrence E./Orton Park,Scarborough-Guildwood,Tamiko Gray,416-431-3898,,,
Galloway Early Learning & Child Care Centre,4299 Kingston Rd,Galloway/Kingston Rd.,Scarborough-Guildwood,Victoria Moosaie,416-392-5229,,,toronto.ca/children/telccs
Gan Chabad Preschool,147 Overbrook Pl,,York Centre,Leanne Boros,416-635-9696,,,ganchabad.ca
Gan Sameach,585 Glengrove Ave,Eglinton Ave/Glengrove Ave W,Eglinton-Lawrence,Sarah Binder,416-826-7955,,,
Gan Shalom Preschool (OpChabad On The Avenue),157 Falkirk St,,Eglinton-Lawrence,Chana Gansburg,416-546-8770,,,
Gan Yeladim Day Care Centre,100 Elder St,Sheppard W/Wilmington Ave.,York Centre,Galina Bagga,416-638-1796,,,
Garderie Chez Tante Laure,339 Alton Towers Cir,McCowan/McNicoll,Scarborough North,Ntumba  Jackie Badibanga,416-284-7185,,,
Garderie Chez Tante Laure 2,255 Coronation Dr,,Scarborough-Rouge Park,Geannine Kabila,416-283-0060,,,
Garderie Du Cercle De L'Amitie - Etobicoke,30 Thistle Down Blvd,Islington/Albion,Etobicoke North,Nrushago Mbanianga,416-740-1074,,,
Garderie Du Soleil Levant,116 Cornelius Pky,Keele St/Lawrence West,York South-Weston,Sifa Mujynya Mupipi,416-551-7072,,,
Garderie La Farandole Felix-Leclerc,50 Celestine Dr,Kipling/Dixon,Etobicoke Centre,Bibi Lollmohamud,647-438-9139,,,garderielafarandole.com
Garderie La Farandole Gabrielle Roy,14 Pembroke St,Jarvis/Shuter,Toronto Centre,Charleine Mujynya,416-363-1841,,,garderielafarandole.com
Garderie La Farandole - Pierre Elliott Trudeau,77 Grace St,Bathurst/College,University-Rosedale,Salimata Diallo,416-603-6062,,,garderielafarandole.com
Garderie Mon Petit Jardin,500 Sandhurst Cir,Finch E./McCowan,Scarborough North,Yalda Lie Chatelain Aristilde,416-397-6982,,,
Garderie Rayon De Soleil,1 Ness Dr,York Mills/Victoria Pk.,Don Valley East,Agnes Sesboue,416-444-3464,,,
Garfield Avenue Children's Circle,1 1/2 Garfield Ave,Mount Pleasant/St. Clair E.,University-Rosedale,Maria Samuels,416-963-9242,,,
Garrison Creek Community Day Care,222 Niagara St,King W./Bathurst,Spadina-Fort York,Rana Said,416-703-0541,,,
Gateway Day Care Centre,"100 Leeward Glenway, Grnd Flr",Gateway/Don Mills,Don Valley East,Pricella Rasanayagam,416-424-2419,,,
General Mercer Early Learning Centre,30 Turnberry Ave,Old Weston/St. Clair,Davenport,Lasheka Packkiyarajah,416-658-1699,,,
George Brown - Casa Loma Child Care Centre,160 Kendal Ave,Davenport/Spadina,Toronto-St. Paul's,Laura Alexopoulos,416-415-4616,,,
George Brown College - Mary's Place Child Care Centre,185 Queens Quay E,,Spadina-Fort York,Stephanie Dritsas,416-415-5000,4301,,
George Brown - Dennis Avenue Child Care Centre,17 Dennis Ave,Eglinton/Weston Road,York South-Weston,Eftychia Ntanou,647-289-1392,,,
George Brown - Dundas Street East Child Care Centre,935 Dundas St E,Dundas/Broadview,Toronto-Danforth,Raizell Slobodsky,416-415-2453,,,
George Brown - Elmlea,50 Hadrian Dr,,Etobicoke North,Andrea Prifti,416-922-8827,,,
George Brown - Fashion District/Ryerson Child Care Centre,96 Denison Ave,Dundas W./Bathurst,Spadina-Fort York,Laura Alexopoulos,416-415-4616,,,
George Brown - Nelson Mandela Child Care Centre,440 Shuter St,Yonge/Dundas,Toronto Centre,Raizell Slobodsky,416-415-2450,,,
George Brown - Richmond Adelaide Childcare Centre,"130 Adelaide St W, Mezzanine Level",York St./Adelaide St.,Spadina-Fort York,Jacqueline Cook,416-415-2453,,,
George Brown - Rose Avenue Child Care Centre,675 Ontario St,Parliament/Wellesley,Toronto Centre,Andrea Prifti,416-922-8827,,,
George Webster Jr YMCA,50 Chapman Ave,Chapman Ave/Avis Cres,Beaches-East York,Jennifer Armstrong,416-288-0997,,,ymcatoronto.org
Gerrard Early Learning Centre,163 Gerrard St E,Gerrard St. E./Jarvis,Toronto Centre,Wei Wei Wang,416-926-2208,,,
Gibraltar Point Day Nursery Inc.,30 Centre Island Pk,Hanlans Point/Toronto Island,Spadina-Fort York,Monkhouse Jessica,416-393-1907,,,gibraltarpointdaycare.com
Gilder Early Learning & Child Care Centre,31 Gilder Dr,Midland/Eglinton,Scarborough Centre,Carolina Lovato-Mejia,416-392-5696,,,toronto.ca/children/telccs
Gilder Satellite Early Learning & Child Care Centre,47 Gilder Dr,Midland/Eglinton,Scarborough Centre,Carolina Lovato-Mejia,416-392-3743,,,toronto.ca/children/telccs
Givins/Shaw School Community Day Care,49 Givins St,Queen W./Shaw,Spadina-Fort York,Jessica Adams,416-531-4628,,,
Glamorgan School Age YMCA,51 Antrim Cres,Kennedy/Hwy. 401,Scarborough Centre,Jameelah Cayenne,647-438-7124,,,
Gledhill Avenue Child Care Centre,2 Gledhill Ave,Danforth Ave./Woodbine,Beaches-East York,Ashley Gayle,647-325-8417,,,
Glen Cameron For Kids,211 Cameron Ave,Yonge/Sheppard,Willowdale,Mary Davis,416-225-5788,,,
"Glen Ravine Junior Public School, Extended Day Program",11 Gadsby Dr,Eglinton Ave E/Brimley Rd,Scarborough Centre,,416-394-2072,,edp@tdsb.on.ca,tdsb.on.ca/earlyyears/child-care/extended-day-programs
Gold Circle Early Childhood Day Care Centre,25 Poynter Dr,Islington/The Westway,Etobicoke Centre,Halrick Campbell,416-241-2000,,,
Golf Road School Child Care Centre Inc.,730 Scarborough Golf Club Rd,Scarb. Golf Club/Lawrence E.,Scarborough-Guildwood,Morsal Morsal,416-289-1061,,,golfroadschoolccc.com
Good Shepherd Day Care Centre,2230 Birchmount Rd,Birchmount/Sheppard E.,Scarborough-Agincourt,June Cheng,416-293-5631,,,
Grace Christian School - Day Nursery,201 Tempo Ave,Victoria Park/Finch E.,Don Valley North,Mee Fung Ng,416-502-1540,,,
Grace Church On-The-Hill Child Care Centre,300 Lonsdale Rd,Spadina/St. Clair W.,Toronto-St. Paul's,Katy Kabiri,416-932-3502,,,
Grand Avenue Montessori School - 600,600 The Queensway,Queensway/Park Lawn Rd.,Etobicoke-Lakeshore,Carmen Shave,416-706-7224,,,gamontessorischool.com
Grand Avenue Montessori School - 602,602 The Queensway,Queensway/Park Lawn Rd.,Etobicoke-Lakeshore,Katherine Shave-Venture,416-247-9485,,,gamontessorischool.com
Graydon Hall Child Care Services In Don Valley Business Park,"150 Ferrand Dr, Suite 102",Don Mills/Eglinton E.,Don Valley East,Charlene Maikantis,416-429-5444,,,ghns.ca
Green Apple Kids,3605 Dundas St W,Dundas W./Jane,Parkdale-High Park,Linda Martin,416-570-6096,,,greenapplekids.ca
Greenland Recreational After School Program,15 Greenland Rd,The Donway East/Don Mills,Don Valley East,Kathy Allagas Da Silva,416-444-7427,,,greenlandrecreational.com
Greenwood Montessori School,38 Payzac Ave,Kingston/Galloway,Scarborough-Guildwood,Elizabeth Afolabi-Aiyelokun,416-281-9208,,,kidslovedaycare.ca
"Grey Owl Junior Public School, Extended Day Program",150 Wickson Trail,Neilson Rd/Sheppard Ave E,Scarborough-Rouge Park,,416-394-2072,,edp@tdsb.on.ca,tdsb.on.ca/earlyyears/child-care/extended-day-programs
Growing Tykes Child Care,4105 Lawrence Ave E,Lawrence E./Galloway,Scarborough-Guildwood,Andrea Bacon,416-438-5989,,,
Growing Tykes Learning Centre,112 Sedgemount Dr,Markham Rd/Ellesmere,Scarborough-Guildwood,Angela Ellis,416-438-4088,,,
Growing Tykes Learning Centre (Dundas Street West),5150 Dundas St W,Dundas W./Kipling,Etobicoke-Lakeshore,Michelle Arsenault,416-207-9259,,,
Growing Tykes Learning Centre  910 Markham Road,910 Markham Rd,Markham/Ellesmere,Scarborough-Guildwood,Laura Derewonko,416-438-4088,,,
Guildwood Child Care,3969 Kingston Rd,Guildwood Go Train Station,Scarborough-Guildwood,Cynthia Bright,416-261-4476,,,
Gulfstream Day Care Centre,20 Gulfstream Rd,Weston Rd./Sheppard,Humber River-Black Creek,Sandra Buttarazzi,416-746-5714,,,
Happy Day Child Care Centre,676 Jane St,Jane/St. Clair W.,York South-Weston,Jodie Nowack,416-528-1469,,,
Happyland Childcare Learning Centre,225 Gosford Blvd,,Humber River-Black Creek,Natalia Cojuhari,416-661-7227,,,happylandccc.ca
Harmony Childcare Centre,124 Northcliffe Blvd,Dufferin/St. Clair,Davenport,Susie Pascuzzi,416-656-8902,,,
Hawthorne-On-Essex Day Care,50 Essex St,Bloor W./Christie,University-Rosedale,Elisha Gauthier,416-393-9291,,,
Hawthorn School Day Care,101 Scarsdale Rd,Leslie St/York Mills Rd,Don Valley East,Chandra Kanthi Tantrege,416-444-3054,,,
Head Start Montessori,"2235 Sheppard Ave E, 105",,Don Valley North,Naureen Shah,416-756-7300,,,headstartmontessori.ca
Heart Beatz Child Care - Cedarbrook Site,56 Nelson St,,Scarborough-Guildwood,Shiromie Ganesh,647-808-1439,,,
Heart Beatz Child Care - Cliffcrest Site,2938 Eglinton Ave E,Eglinton E./McCowan Rd.,Scarborough Centre,Irene Sheridan,416-267-6293,,,
Heart Beatz Child Care - Solaris Site,141 Village Green Sq,,Scarborough-Agincourt,Ruth Mitchell,416-321-1719,,,
Heart Beatz - Halbert Child Care Site,25 Halbert Place,McCowan Rd/Kingston Rd,Scarborough Southwest,Shiromie Ganesh,647-808-1439,,,
Heath And Ferndale Child Care Program,23 Ferndale Ave,Yonge/St. Clair,Toronto-St. Paul's,Kim Elkas,416-961-9678,,,
Heritage Child Care & Early Learning Centre,75 Alexmuir Blvd,Alexmuir Blvd/Finch Ave,Scarborough North,Xu Fan Lisa Lin,647-436-6670,,,
Heritage Child Care & Early Learning - Milliken Site,130 Port Royal Trail,,Scarborough North,Anna Ginam Lee,647-825-7528,,,
Hester How Early Learning Centre,"100 Queen St W, 1st Floor East Tower",Queen/Bay,Spadina-Fort York,Ingrid Ivis,416-392-7981,,,hesterhowelc.com
High Park Early Learning Centre,17 High Park Ave,Bloor/High Park Ave.,Parkdale-High Park,Marsha Adams,416-760-9958,,,
High Park Gardens Montessori School,35 High Park Gdns,Parkside Dr/Howard Park Ave,Parkdale-High Park,Kaitlyn Lubniewski,416-763-6097,,,mildenhallmontessori.com
High Park Jr YMCA,2665 Dundas St W,Dundas/Annette,Parkdale-High Park,Melissa De Sousa,416-763-1195,,,
Highview Wilson Child Care,22 Highview Ave,Keele/Hwy. 401,York Centre,Shanika Richards,416-245-6221,,,
Hillcrest Progressive School,59 Plymbridge Rd,Yonge/York Mills,Don Valley West,Gianna Michielli,416-489-8355,,,
Hillmount Child Care,245 McNicoll Ave,Don Mills/Finch,Don Valley North,Jenny Lung,416-494-0877,,,
Hillside Montessori School,76 Anglesey Blvd,Islington/Rathburn,Etobicoke Centre,Jennifer Chu,416-846-1470,,,hillsidemontessori.com
Hilltop Daycare Centre,160 North Bonnington Ave,Kennedy/St. Clair,Scarborough Southwest,Gail Walker,416-266-1085,,,
Hippo Nursery School,729 St Clair Ave W,St. Clair/Christie,Toronto-St. Paul's,Joanna Gillespie,416-651-6718,,,hipposchool.com
Holland-Bloorview Kids Rehab. - (Play & Learn Nursery),666 Eglinton Ave W,Eglinton W./Spadina,Eglinton-Lawrence,Silvia Souto,416-782-1105,,,hollandbloorview.ca
Holland-Bloorview Kids Rehab. (Scarborough Site),1 Wayne Ave,Lawrence E./Warden,Scarborough Centre,Michelle Weir,416-759-8079,,,hollandbloorview.ca
Hollywood All-Stars Child Care,360 Hollywood Ave,Bayview/Sheppard,Willowdale,Angela Iantorno,416-221-7827,,,
Holy Family Childcare Centre-Queen Victoria,141 Close Ave,Jameson/King West,Parkdale-High Park,Naresha Ali,416-524-2052,,,
Holy Spirit Jr YMCA,3530 Sheppard Ave E,Birchmount/Sheppard,Scarborough-Agincourt,Ranu Singh,416-913-0958,,,
Holy Trinity YMCA,6 Colonel Samuel Smith Park Dr,Kipling/Lake Shore Blvd W,Etobicoke-Lakeshore,Irene Grobelny,647-281-4410,,,
Hopscotch Montessori Canada,"55 St Clair Ave W, 110, 112, 130",St. Clair Ave W/Yonge St,Toronto-St. Paul's,Anna Fedina,437-987-1953,,,
Howard Park Children's Centre,30 Marmaduke St,Howard Park/Roncesvalles,Parkdale-High Park,Donalee McNeil,416-532-3945,,,
Humber Bay Child Care Centre,50 Cloverhill Rd,Park Lawn/The Queensway,Etobicoke-Lakeshore,Shaza Asanovski,416-251-8240,,,
Humber Child Development Centre,205 Humber College Blvd,Rexdale/Hwy. 27,Etobicoke North,Tonja Armstrong-Macinnis,416-675-5057,,,
Humbercrest Nursery School,"569 Jane St, 114",,Parkdale-High Park,Roza Azaribousheri,416-763-7309,,humbercrestnursery@gmail.com,
Humbercrest School Age YMCA,14 St Marks Rd,Jane/Dundas W.,Parkdale-High Park,Jessica Carranza,416-769-6715,,,
Humberside Montessori School,121 Kennedy Ave,Bloor St W/Kennedy Ave,Parkdale-High Park,Aidan Roman-Crossland,416-762-8888,,,humbersidemontessori.ca
Humbervale Montessori School Inc (Facility #15068),1447 Royal York Rd,Royal York/Eglinton W.,Etobicoke Centre,Andrea Heitz,416-244-4001,,,humbervalemontessori.ca
Humewood Day Care Centre,15 Cherrywood Ave,St. Clair/Christie,Toronto-St. Paul's,Sara Martins,416-651-2550,,,
Hunter's Glen School Age YMCA,16 Haileybury Dr,Lawrence/Midland,Scarborough Centre,Felicia Bryan,416-261-9092,,,
Huron Playschool Co-Operative,383 Huron St,Bloor/Huron,University-Rosedale,Portia Ohemaah-Akoto,416-977-1109,,,huronplayschool.com
Huron Superfriends Inc.,541 Huron St,Bloor/St. George,University-Rosedale,Gertie Dorval,416-921-7551,,,superfriends.ca
Hurwich Education Centre - Kamin,252 Finch Ave W,,Willowdale,Tova Segal,416-787-1872,,,associatedhebrewschools.com
Hydro Bright Lights Childcare Centre,"800 Kipling Ave, Kp 100 Building, Unit 5",Dundas/Kipling,Etobicoke-Lakeshore,Monica Tersigni,416-207-6856,,,hydrobrightlights.com
Hydrokids - Opg,700 University Ave,College/University,University-Rosedale,Marjeta Guni,416-551-9537,,,
Ikebata Nursery School,6 Sakura Way,Don Mills/Wynford Dr.,Don Valley East,Chinatsu Yano,416-510-1441,,,ikebatanursery.com
Immaculate Conception Child Care Centre,23 Comay Rd,Black Creek Dr./Eglinton Ave W,York South-Weston,Sindy Torres,416-760-2809,,,lefca.org
Immanuel Child Care Centre,21 Channel Nine Crt,McCowan/Hwy. 401,Scarborough North,Ingrid Van Dyk,416-293-9361,,,
Impact Childcare Centre,4545 Jane St,,Humber River-Black Creek,Simone Pammenter,647-429-9749,,,impactchildcare.ca
Indian Road Crescent School Age YMCA,285 Indian Road Cres,Keele St/Dundas St W,Parkdale-High Park,Melissa De Sousa,416-763-1195,,,
Institute Of Child Study After School Daycare,45 Walmer Rd,Spadina/Bloor,University-Rosedale,Anne Marie Lopez,416-934-4512,,,
Isabella Walton Child Care (Scarborough)Inc.,835 Birchmount Rd,Birchmount/Eglinton,Scarborough Southwest,Anjali Dubey,416-750-4598,,,
Islington Village Childcare Centre,112 Jutland Rd,,Etobicoke-Lakeshore,Sharlin Christian,416-255-2000,,,islingtonvillageccc.com
Ivy Montessori School Inc.,1428 Royal York Rd,Royal York Rd/Eglinton Ave W,Etobicoke Centre,Gabriela Ortega,416-242-8778,,,ivymontessori.ca
J.R. Wilcox Day Care Centre,231 Ava Rd,Eglinton W./Marlee Ave.,Toronto-St. Paul's,Regina Abreu,416-656-1781,,,
Jackman Community Daycare,79 Jackman Ave,Danforth/Chester,Toronto-Danforth,Kayla Myles,416-466-8715,226,,jackmancommunitydaycare.ca
Jardin D'Eveil,294 Lawrence Ave E,Bayview/Lawrence,Don Valley West,Celine Lebel,416-484-6980,4355,,
Jesse Ketchum Early Learning & Child Care Centre,7 Berryman St,Davenport/Bay,University-Rosedale,Vilma Liberata Leone,416-392-5061,,,toronto.ca/children/telccs
"Jesse Ketchum Junior And Senior Public School, Extended Day Program",61 Davenport Rd,Davenport/Bay,University-Rosedale,,416-394-2072,,edp@tdsb.on.ca,tdsb.on.ca/earlyyears/child-care/extended-day-programs
Jewish Russian Community Centre Preschool & Day Care,"5950 Bathurst St, Unit #109",Bathurst/Steeles,York Centre,Shaina Zaltzman,416-222-7105,501,,jrccdaycare.org
Jingbao (Downtown)Bilingual Children's Centre (96 Denison Avenue),96 Denison Ave,,Spadina-Fort York,Wenbo Chen,416-603-8885,,,
Jingbao Bilingual Children's Centre,3105 Don Mills Rd,Don Mills/Finch,Don Valley North,Yan Wang,416-494-4105,,,torontomandarinschool.com
Jingbao Bilingual Children's Centre - Scarborough,2350 McCowan Rd,McCowan/Finch Ave. E.,Scarborough North,Bing Ma,416-321-6006,,,
John A. Leslie Childcare - Scarborough,459 Midland Ave,Midland/Kingston Rd.,Scarborough Southwest,Lynda Campbell,416-261-3238,,,
John English YMCA,95 Mimico Ave,Royal York.Mimico Ave,Etobicoke-Lakeshore,Ashley Thompson,416-930-5467,,,ymcatoronto.org
John G. Althouse - Princess Margaret,65 Tromley Dr,Eglinton/Martingrove,Etobicoke Centre,Elizabeth Ann Hawkins,416-394-6989,,,
John G Diefenbaker Child Care Centre,70 Dean Park Rd,Dean Park Rd/Meadowvale Rd,Scarborough-Rouge Park,Gloria Kanhai,416-281-4171,,,
John Ross Robertson Child Centre,130 Glengrove Ave W,Avenue/Lawrence,Eglinton-Lawrence,Sheryl Barton,416-484-4825,,,jrrcc.ca
John Wanless Child Care,245 Fairlawn Ave,Lawrence/Avenue Rd.,Eglinton-Lawrence,Fiona Modeste,416-488-8571,,,jwccp.com
Jolly Juniors,"1500 Royal York Rd, 37",,Etobicoke Centre,Bosede Ekemezie,416-666-2127,,,jollyjuniors.ca
Jubilee Child Care Centre,"55 Emmett Ave, 109",Jane/Eglinton,York South-Weston,Francesca Santoro,416-530-0722,4019,,
Junction Day Care Centre,265 Annette St,Annette/Clendenan,Parkdale-High Park,Tracy Spence,416-767-2991,,,
Kateri Kids Child Care Centre,70 Margaret Ave,Finch East/Victoria Park,Don Valley North,Andrea Miele,416-496-2965,,,
Keelmount Daycare Centre,99 Mountview Ave,Bloor/Keele,Parkdale-High Park,Jennifer Ayre,416-763-6824,,,
Kenlinton Child Care Centre (OperatorStonehill)Facility #16008,2283 Eglinton Ave E,Birchmount/Eglinton,Scarborough Southwest,Chauleyne Bell,416-759-4525,,,
Kennedy Road Kiddy Kare - (Kennedy Road Church Of The Nazarene),661 Kennedy Rd,Kennedy/Eglinton,Scarborough Southwest,Helga Galostian,416-261-1414,,,
Kensington Kids Early Learning Centre,401 College St,College/Bathurst,University-Rosedale,Elana Rosen,416-927-0870,,,kensingtonkidselc.ca
Kepalen Angelic Child Care,1301 Neilson Rd,Neilson Rd/Sewells Rd,Scarborough-Rouge Park,Mbongo Fon Nabila,647-581-3125,,,
Kew Beach Day Care Co-Op Inc.,101 Kippendavie Ave,Queen/Woodbine,Beaches-East York,Kristy Dodson,416-698-6226,,,
Kew Park Montessori Day School Inc. (Hiawatha Road),79 Hiawatha Rd,Gerrard St. E./Coxwell Ave.,Toronto-Danforth,Bobbi Jo Laberge,416-694-6273,,,kewparkmontessori.com
Kiddies Lodge Day Care Centre,764 Ellesmere Rd,Birchmount/Ellesmere,Scarborough Centre,Deborah Otto,416-298-6092,,,
Kids & Company - Bloor Street Site,"160 Bloor St E, Suite 160",Bloor/Church,University-Rosedale,Anna-A Green,416-924-5437,0,,kidsandcompany.com/locations/bloor
Kids & Company - Consumers Site,"251 Consumers Rd, Suite 100",Victoria Pk./Shepperd,Don Valley North,Mona Hosseini,416-493-2045,0,, kidsandcompany.com/locations/consumers
Kids & Company Etobicoke,"3250 Bloor St W, Et 101",Islington/Bloor,Etobicoke-Lakeshore,Stephanie Samanica,416-237-0404,,,kidsandcompany.com/locations/etobicoke
Kids & Company - Finch Site,"5650 Yonge St, Suite 101",Yonge/Finch,Willowdale,Anita Cao,416-222-0905,0,, kidsandcompany.com/locations/finch
Kids & Company - Front Street Site,"320 Front St W, Suite 100",Front/Blue Jay Way,Spadina-Fort York,Tanya Arora,416-345-1543,0,,kidsandcompany.ca
Kids & Company King And Highline,1100 King St W,King St. West/Dufferin St.,Spadina-Fort York,Natalia Nakonechna,416-460-3373,,,kidsandcompany.com
Kids & Company Ltd. - Bloor Christie,703 Bloor St W,,University-Rosedale,Samantha Del Rio-Cuevas,647-345-5702,0,, kidsandcompany.com/locations/bloor-christie
Kids & Company Queen West,308 Queen St W,Spadina And Queen St W,Spadina-Fort York,Pam Janes,416-595-5537,0,,kidsandcompany.com
Kids & Company - Rosedale,129 Mount Pleasant Rd,Mt Pleasant Rd/Bloor St E,University-Rosedale,Ashleigh Bundock,416-922-9814,,,kidsandcompany.com
Kids & Company Scotia Plaza,"104 Yonge St, Unit 260 & Unit 360",,Toronto Centre,Anita Baidya,416-603-2992,,,kidsandcompany.com/locations/scotia-plaza
Kids & Company St Andrews,73 Simcoe St,,Spadina-Fort York,Sue Purser,416-938-8024,,,kidsandcompany.com/locations/st-andrews-church
Kids & Company The Stockyards,100 Weston Rd,Weston Rd/St Clair W,York South-Weston,Melissa Garcia-Medeiros,416-761-9019,0,,
Kids Club (Day Care Connection),780 Kingston Rd,Main/Kingston Rd.,Beaches-East York,Nicky Antonoglou,416-693-6596,,,daycareconnection.net
Kids Club Daycare & Learning Centre (OpAaa Childrens Inc.),104 Advance Rd,Bloor St. W./Islington,Etobicoke-Lakeshore,Caroline Botelho,416-236-2863,,,kidsand company.com/locations/islington
Kids Connect Daycare,138 Main St,,Beaches-East York,Meghan Clemens,647-494-9991,,,kidsconnectdaycare.com
Kids Haven Community Child Care,46 Cresthaven Dr,Finch/Leslie,Don Valley North,Pam Geci,416-492-8336,,,kidshavencommunitychildcare.com
Kids Korner Day Care,180 Westmoreland Ave,Bloor/Dufferin,Davenport,Maryam Nasiri,416-536-4102,,,
Kids Way Daycare,369 Broadview Ave,,Toronto-Danforth,Gloria De Melo,416-508-2160,,,
Kids Zone Daycare Inc.,123 Glendale Ave,Roncesvalles/Queen,Parkdale-High Park,Branka Rados,416-534-1758,,,
Kids Zone Daycare On Constance,76 Constance St,Bloor W./Roncesvales,Parkdale-High Park,Marissa Pereira,416-551-4354,,,
Kidz Kare,"15 York St, 3rd Floor",Lakeshore W./York St.,Spadina-Fort York,Parisa Seyed,416-553-4166,,,
Kiiwednong Aborginal Head Start,"1288 Weston Rd, 1294",,York South-Weston,Amanda Macewen,416-639-9036,,,
Kimbercroft Day Nursery 2,39 Kimbercroft Crt,Markham/Sheppard,Scarborough North,Sandira Namrud,416-321-1694,,,kimbercroft.com
Kinderbrook Montessori School,1 Credit Union Dr,,Don Valley East,Nourin Thayani,416-759-5463,,,kinderbrookmontessori.com
Kindercircle Day Care,150 Kilgour Rd,Bayview/Eglinton,Don Valley West,Kenna Paul,416-424-3818,,,
Kinder College Early Learning Centre,"25 Nicholas Ave, 1",River St And Shuter Ave,Toronto Centre,Khushdeep Kaur,416-249-9881,,,kindercollege.ca
Kinder College Early Learning Centre,218 Richmond St W,Richmond St. W./MC Caul St,Spadina-Fort York,Manpreet Sidhu,416-479-0004,,,kindercollege.ca
Kinder Grove St. Clair,94 Vaughan Rd,,Toronto-St. Paul's,Marziyeh Ghavami-Monfared,416-654-1678,,,kindergrove.ca
King George B & A School Program,25 Rexford Rd,Jane/Dundas,Parkdale-High Park,Melissa Oliveira,416-509-0159,,,
Kingston Road East Early Learning And Child Care Centre,3392 Kingston Rd,Kingston/Markham,Scarborough Southwest,Linda Darlene Tisman,416-396-3755,,,toronto.ca/children/telccs
Kingsview Child Care,340 Dixon Rd,Dixon/Islington,Etobicoke North,Pauline Holt,416-249-7601,,,
Kingsway Nursery School,85 The Kingsway,Kingsway/Prince Edward,Etobicoke-Lakeshore,Sara Cuda,416-233-1491,,,kingswaynurseryschools.ca
Kipling Early Learning & Child Care Centre,2233 Kipling Ave,Kipling Ave./Rexdale Blvd.,Etobicoke North,Luisa Quadrini,416-397-9961,,,toronto.ca/children/telccs
Knob Hill Day Nursery,23 Gage Ave,Brimley/Lawrence,Scarborough Centre,Annalyn Narciso,416-439-9864,,,
Knob Hill School Age YMCA,25 Seminole Ave,Brimley/Eglinton,Scarborough Centre,Erin Andersen,416-296-9907,,,
Kodomoen Childcare Centre,"630 Spadina Ave, 2nd Floor",College/Spadina,University-Rosedale,Shizuka Hosein,416-599-2426,,,kodomoentoronto.ca
Kreative Kids Child Care Centre,100 Bamburgh Cir,Warden/Finch,Scarborough-Agincourt,Lesley-Anne Hercules,647-438-9411,,,
Kreative Kids Terry Fox,185 Wintermute Blvd,,Scarborough-Agincourt,Lesley-Anne Hercules,647-438-9411,,,
La Citadelle International Academy Of Arts & Science,36 Scarsdale Rd,,Don Valley East,Alfred Abouchar,416-385-9685,,,
Lady Bug Daycare Centre,400 Burnhamthorpe Rd,Burnhamthorpe/East Mall,Etobicoke Centre,Reena Joseph,416-626-1251,,daycareladybug@gmail.com,
Lakeshore Community Child Care Centre,101 Seventh St,Islington/Lake Shore Blvd. W,Etobicoke-Lakeshore,Kwameah Anoush Bennett,416-394-7601,,,
Lakeside Co-Operative Playschool Inc.,2226 Queen St E,Queen St E/Beech Ave,Beaches-East York,Chris Probst,416-524-5676,,,
La Maison Du Dodo,582 Oakwood Ave,Oakwood/Eglinton,Toronto-St. Paul's,Vanesha C. Khadaroo,416-656-5555,,,sunflowermontessori.ca
Lambton - Kingsway B & After School Program,525 Prince Edward Dr N,Dundas W./Royal York,Etobicoke-Lakeshore,Laura Van De Kraats,416-394-6400,,,
Lambton Park Child Care Centre,50 Bernice Cres,Jane/St. Clair W.,York South-Weston,Karin Dewinter,416-762-5177,,,lambtonparkchildcare.wixsite.com/lambtonparkchildcare
Lamp Jr YMCA,185 Fifth St,Burmingham/Islington,Etobicoke-Lakeshore,Filomena Zita,416-252-8544,,,
Lansing Co-Op Nursery School,80 Church Ave,Yonge/Finch,Willowdale,Leslie Beveridge,416-225-4581,,,
La Petite Ecole,130 Kennedy Ave,Runnymede/Bloor,Parkdale-High Park,Jennifer Brown,416-767-2020,,,lapetiteecole.co
Lawrence Heights Community Day Care Centre,10 Flemington Rd,William R. Allen/Bathurst,Eglinton-Lawrence,Harriette Noel-Humes,416-787-4105,,,
Lawrence Orton Early Learning & Child Care Centre,3947 Lawrence Ave E,,Scarborough-Guildwood,Eileen Marquez,416-392-5692,,,
Lawrence Park School,2180 Bayview Ave,,Don Valley West,Rochelle Navarro,416-489-4459,,info@lawrenceparkschool.com,lawrenceparkschool.com
Learning Garden Childcare,69 Six Point Rd,Islington/Queensway,Etobicoke-Lakeshore,Amal Akram,416-231-8998,,,learninggarden.ca
Learning Jungle Briarcrest,1982 Islington Ave,,Etobicoke Centre,Amanda Katryan,416-244-8691,,,
Learning Jungle Buttonwood,100 Sidney Belsey Cres,Jane/Weston,York South-Weston,Sunita Mody,416-241-3800,,,
Leaside Children's House,839 Millwood Rd,Millwood/Laird,Don Valley West,Jim Karaiskakis,416-425-0101,,,leasidechildrenshouse.com
Leaside Day Care Centre,206 Laird Dr,Laird/Eglinton,Don Valley West,Frances Quin,416-487-5862,,,
Ledbury Park Child Care Program,95 Falkirk St,Bathurst/Lawrence,Eglinton-Lawrence,Christine File,416-782-2539,,,
Lee Wiggins Childcare Centre (The),"4700 Keele St, Room 201",Keele/Steeles W.,Humber River-Black Creek,Michelle Pham,416-736-5959,,,yorkchildcare.ca
Lef - George Harvey Child Care Centre,1700 Keele St,Eglinton/Keele,York South-Weston,Daniella Suarez,416-658-9244,,,
Lef - Roseland Day Care,990 Jane St,Jane/Eglinton W.,York South-Weston,Juliana Donkor,416-763-0068,,,
Lef- Silverthorn Early Learning Earth Centre,2700 Eglinton Ave W,Keele/Eglinton W.,York South-Weston,Daisy Thi Dieu Hoang,416-653-9702,,,lefca.org
Lef - Vaughan Road Infant And Toddler Centre,529 Vaughan Rd,Vaughan Rd./Oakwood,Toronto-St. Paul's,Espy Castillo,416-658-1874,,,
Le Jardin De Moliere,"866 The Queensway, 100",Islington And Queensway,Etobicoke-Lakeshore,Valencia Yesica,647-774-8628,,,
Le Jardin De Moliere Inc,"3029 Lake Shore Blvd W, 2nd Floor",,Etobicoke-Lakeshore,Yesica Valencia,647-774-8628,,,lejardindemoliere.com
Leonardo Da Vinci Academy Of Arts & Science,901 Lawrence Ave W,,Eglinton-Lawrence,Susan Lee,416-247-6137,,,ldva.on.ca
Le Petit Chaperon Rouge - Coxwell,419 Coxwell Ave,Coxwell/Gerrard,Beaches-East York,Elena Coderre,416-463-3955,,,lepetitchaperonrouge.ca
Le Petit Chaperon Rouge - Etobicoke (Facility #12270),755 Royal York Rd,Royal York/Norseman,Etobicoke-Lakeshore,Axelle Bangala,416-236-4557,,,lepetitchaperonrouge.ca
Le Petit Chaperon Rouge - Gainsborough,250 Gainsborough Rd,Coxwell/Gerrard,Beaches-East York,Hayat Lamouri,416-465-2582,,,lepetitchaperonrouge.ca
Le Petit Chaperon Rouge - Jones,343 Jones Ave,Jones/Gerrard E,Toronto-Danforth,Saliha Mtoui,416-465-2227,,,
Le Petit Chaperon Rouge Milverton,700 Milverton Blvd,Woodbine Ave/Danforth Ave,Beaches-East York,Nadia Daoust,647-795-3943,,,lpcr.ca
Le Petit Chaperon Rouge - Queensdale,80 Queensdale Ave,Monarch Park/Sammon,Toronto-Danforth,Aziza El Mountaqi,416-463-3975,,,lepetitchaperonrouge.ca
Le Petit Chaperon Rouge - Richview,59 Clement Rd,Martin Grove/Eglinton West,Etobicoke Centre,Jamila Balfoul,416-240-9559,23,,lepetitchaperonrouge.ca
Le Petit Chaperon Rouge - Scarborough,29 Meadowvale Rd,,Scarborough-Rouge Park,Jamila Ait Abbou,647-269-4833,,,
Leroux Froebel Bilingual School,72 Main St,Main/Kingston Rd.,Beaches-East York,April Zagala,416-698-1923,,,lerouxfroebel.com
Les Bouts D'Choux,98 Essex St,Bloor/Christie,University-Rosedale,Julie Meta Kadiamba,416-960-9929,,,
Lescon Learners Child Care,34 Lescon Rd,Leslie/Sheppard,Don Valley North,Jaana Kitchen,416-499-7325,,,lesconchildcare.ca
Les Etoiles Brillantes 2,100 Ravel Rd,,Don Valley North,Deborah Yala,647-285-2099,,,
Les Etoiles Brillantes - Garderie,85 Forty First St,Lakeshore Rd W/Forty First St,Etobicoke-Lakeshore,Deborah Yala,647-285-2099,,,
Les Merveilles Du Monde,150 Carnforth Rd,Victoria Park/Lawrence E,Don Valley East,Mariama Barry,647-428-0084,,,
Liberty Preparatory School Inc.,181 Carlaw Ave,Queen/Carlaw,Toronto-Danforth,Leslie Shuber,416-461-3216,,,libertyprepschool.com
Liberty Prep Parliament,162 Parliament St,,Toronto Centre,Laura McDougall,416-603-0341,,,
Life-Bridge Child Care,330 University Ave,Queen/University,Spadina-Fort York,Lucy Ngo,416-552-6323,,,
"Lillian Public School, Extended Day Program",1059 Lillian St,Yonge/Steeles,Willowdale,,416-394-2072,,edp@tdsb.on.ca,tdsb.on.ca/earlyyears/child-care/extended-day-programs
Lily's House Inc.,1032 Coxwell Ave,Coxwell/O'Connor,Toronto-Danforth,Lilian Benvenutto,416-423-8580,,,
Little Acorns Montessori School,40 Underhill Dr,Lawrence Ave. E./Dvp,Don Valley East,Cathie Mahoney,416-725-6459,,,littleacornsmontessori.ca
Little Angels Childcare Learning Centre,1695 Dufferin St,Dufferin St./St. Clair West,Davenport,Vesna Ostojic,416-652-1868,,,littleangelsccc.ca
Little Bugs Nursery Corporation,1448 Kingston Rd,,Scarborough Southwest,Jennifer Naraine,416-565-1109,,,littlebugsnursery.ca
Little Footsteps Childcare Inc.,404 Willard Ave,,Parkdale-High Park,Lisa Todorovic,416-604-0330,,,
Little Giants,"38 Forest Manor Rd, A",Don Mills Rd./Sheppard Ave E,Don Valley North,Blessy Simbulan,416-908-3061,,info@littlegiants-childservices.com,littlegiants-childservices.com
Little Giants Childcare Centre Inc.,"50 Forest Manor Rd, Unit 3-6",Don Mills Rd/Sheppard Ave E,Don Valley North,Doris Z Kong,416-668-1067,,,littelgiants-childservices.com
Little Learners Academy Inc.,268 Jane St,Jane St./Annette St.,Parkdale-High Park,Salima Rawjee,416-551-7114,,,
Little Tots' Manor,211 Belsize Dr,Davisville/Mt. Pleasant,Don Valley West,Delene Spragge,416-485-5515,,,littletotsmanor.com
Little Tots' Manor 2,376 Balliol St,Mt. Pleasant/Davisville,Don Valley West,Delene Spragge,416-485-5515,,,littletotsmanor.com
Little Town Childcare And Montessori,122 Queens Plate Dr,,Etobicoke North,Patricia Laforteza,416-668-2770,,,littletown.ca
Lord Dufferin Community Day Care Centre,350 Parliament St,Gerrard/Parliament,Toronto Centre,Andrea Szollos,416-960-8604,,,
Lori Gardens Centre For Early Learning,2405 Finch Ave W,Finch/Weston,Humber River-Black Creek,Ann Marie Staple,416-743-1222,221,,
Lucy Maud Montgomery Jr YMCA,95 Murison Blvd,Sheppard/Neilson,Scarborough-Rouge Park,Melissa Aniff,416-287-7925,,,ymcatoronto.org
Lullaboo Childcare Center (College),860 College St,College/Ossington Ave,Davenport,Shirley Yin,905-780-3078,,,lullaboo.ca
Lullaboo Nursery And Childcare Center,2316 Queen St E,Queen St. E/Kingswood Rd.,Beaches-East York,Nermeen Yousef,416-849-2977,,,lullaboo.ca
Lullaboo Nursery And Childcare Center - Avenue Campus,1133 Avenue Rd,Castlefield/Avenue Road,Eglinton-Lawrence,Katie Chi,416-874-6163,,,lullaboo.ca
Lullaboo Nursery And Childcare Center - Bedford Campus,11 Bedford Park Ave,Yonge/Lawrence,Eglinton-Lawrence,Vasundhra Bakshi,416-544-1039,,,lullaboo.ca
Lycee Francais De Toronto,2327 Dufferin St,Dufferin/Eglinton W.,Toronto-St. Paul's,Barbara Martin,416-258-2121,,,lft.ca
Lynngate Jr YMCA,129 Cass Ave,Warden/Sheppard,Scarborough-Agincourt,Nelisha Karmali,416-293-3020,,,
Lynnwood Heights Junior Public School,50 Southlawn Dr,,Scarborough-Agincourt,Naseem Sahar,416-299-1405,,,
Macaulay Centres For Chidren - St. Jane Frances,2747 Jane St,Jane St/Sheppard Ave W,Humber River-Black Creek,Sabrina Rodriguez,416-789-7441,670,,
Macaulay - Dovercourt Child Care Centre,100 Pauline Ave,Bloor St W/Dufferin St,Davenport,Jessica Mui,416-516-8367,610,,macaulaycentre.org
Macaulay - Fh Miller Child Care Centre,300 Caledonia Rd,Caledonia And Rogers Rd,Davenport,Leah Liang,416-546-1090,470,,macaulaycentre.org
Macaulay - George Syme Child Care Centre,69 Pritchard Ave,,York South-Weston,Melissa Howitt,437-860-1055,,,macaulaycentre.org
Macaulay - Hj Alexander Child Care Centre,30 King St,,York South-Weston,Mary Acheampongmaa,416-572-1028,,,macaulaycentre.org
Macaulay - Humberwood Child Care Centre,850 Humberwood Blvd,Hwy. 427/Rexdale,Etobicoke North,Denise Domise,416-394-4766,,,macaulaycentre.org
Macaulay - Jane Street Child Care Centre,610 Jane St,St. Clair W./Jane,Parkdale-High Park,Christine Ramondino,416-769-8021,621,,macaulaycentre.org
Macaulay - Keelesdale Child Care Centre,"200 Bicknell Ave, Lower Level",Eglinton W./Keele,York South-Weston,Dagmar Grasser,416-394-4222,550,,macaulaycentre.org
Macaulay - Marlee Child Care Centre,145 Marlee Ave,Lawrence Ave W/Marlee Ave,Eglinton-Lawrence,Andrea Barrios,416-546-8931,583,,macaulaycentre.org
Macaulay - Mountview Child Care Centre,569 Jane St,Jane/Dundas,Parkdale-High Park,Katherine Malana,416-780-2720,,,macaulaycentre.org
Macaulay - Pelmo Park Child Care Centre,180 Gary Dr,,York South-Weston,Mia Markotic,647-284-3721,,,macaulaycentre.org
Macaulay - St. Andre Child Care Centre,36 Yvonne Ave,Jane St/Wilson Ave,Humber River-Black Creek,Aanuoluwapo Adeduji,416-312-5044,502,,macaulaycentre.org
Macaulay - St. John The Evangelist Child Care Centre,23 George St,Lawrence Ave And Weston Rd,York South-Weston,Nozomi Kuribayashi,416-953-0133,,,macaulaycentre.org
Macaulay - St. Jude Child Care Centre,3251 Weston Rd,,Humber River-Black Creek,Tianna Robinson,416-789-7441,690,,macaulaycentre.org
Macaulay - St.Nicholas Of Bari Child Care Centre,363 Rogers Rd,,Davenport,Leah Liang,416-546-1090,470,,macaulaycentre.org
Macaulay - St. Paul VI,270 Laughton Ave,St Clair Ave W/Weston Rd,Davenport,Elise Sullivan,416-303-9602,,,macaulaycentre.org
Macaulay - St. Thomas Aquinas Child Care Centre,636 Glenholme Ave,,Toronto-St. Paul's,Sherifa Douglas,437-870-7302,,,
Macaulay - Stanley Child Care Centre,75 Stanley Rd,,Humber River-Black Creek,Esther Kwapong,416-780-2726,391,,macaulaycentre.org
Macaulay - The Well,440 Front St W,Front St W/Spadina,Spadina-Fort York,Maya Milinkovic,416-464-6994,,,macaulaycentre.org
Macaulay - Tippett Child Care Centre,38 Monte Kwinter Crt,,York Centre,Kelly Ton,416-789-7441,381,,macaulaycentre.org
Macaulay - Valleyfield Child Care Centre,35 Saskatoon Dr,,Etobicoke Centre,Evelyn Viriato,416-655-7552,,,macaulaycentre.org
Macaulay - Warren Park Child Care Centre,135 Varsity Rd,Varsity/Dundas W.,Parkdale-High Park,Taylor Peart,647-302-7134,,,macaulaycentre.org
Mackie Sunshine Childcare Inc. - St. Denis Sunshine,67 Balsam Ave,Victoria Park/Queen St. E.,Beaches-East York,Ciera Deneault,416-434-9146,,,
Mackie Sunshine Child Care Inc.St. Joseph's Sunshine,176 Leslie St,Dundas/Leslie,Toronto-Danforth,Laurel Costa,416-469-2866,,,
Main Square Day Care Centre,"265 Main St, Bldg C",Main/Danforth,Beaches-East York,June Hall,416-691-3909,,,mainsquaredaycare.com
Malvern Early Learning & Child Care Centre,1321 Neilson Rd,Sewells/Neilson,Scarborough-Rouge Park,Theresa Persaud,416-392-3766,,,toronto.ca/children/telccs
Mandi Day Care,30 Barrhead Cres,Kipling/Rexdale Blvd.,Etobicoke North,Romona Singh,416-749-8110,,,
Manor Montessori School,9 Elvina Gdns,,Don Valley West,Dana Stewart,416-488-4218,,,manormontessorischool.com
Manor Montessori School 3,909 Mount Pleasant Rd,Mount Pleasant Road/Broadway,Don Valley West,Dana Stewart,416-488-4218,,,manormontessorischool.com
Manor Montessori School Inc - 14 De Savery Crescent,14 De Savery Cres,Davisville/Mt. Pleasant,Toronto-St. Paul's,Dana Stewart,416-488-4218,,,manormontessorischool.com
Maplewood Before And After School Care,15 Cherrywood Ave,Vaughan/St. Clair,Toronto-St. Paul's,Amrit Garcha,416-654-2498,,,
Ma Premiere Ecole,2383 Queen St E,,Beaches-East York,Carole Mindjimba,416-671-4367,,,ma-premiere-ecole.ca
Marguerite Butt Early Learning & Child Care Centre,3197 Lake Shore Blvd W,Lake Shore Blvd W/Kipling,Etobicoke-Lakeshore,Rosemary Mangiardi,416-392-4652,,,toronto.ca/children/telccs
Maria Montessori School Young Children's Community,125 Brentcliffe Rd,,Don Valley West,Alanah Dickson,416-423-9123,,,mariamontessori.ca
"Market Lane Junior And Senior Public School, Extended Day Program",246 The Esplanade,Front St E/Parliament,Toronto Centre,,416-394-2072,,edp@tdsb.on.ca,tdsb.on.ca/earlyyears/child-care/extended-day-programs
Martingrove Child Care Centre,"256 John Garland Blvd, 131 & 132",Martingrove/John Garland,Etobicoke North,Diane Bisnauth,416-742-1812,,,
Martin Luther Child Care - Lakeshore,2379 Lake Shore Blvd W,Lake Shore Blvd W/Superior Ave,Etobicoke-Lakeshore,Cindy Crain,416-259-2861,,,
Martin Luther Child Care - Superior,5 Superior Ave,Lake Shore Blvd W/Royal York,Etobicoke-Lakeshore,Cindy Crain,416-259-2861,,,
Maryvale Jr YMCA,1325 Pharmacy Ave,Pharmacy/Ellesmere,Scarborough Centre,Sol Shenian,416-447-8115,,,
Mary Ward Child Care Centre,3200 Kennedy Rd,Kennedy/Steeles,Scarborough-Agincourt,Shanthinie Edwards,416-297-9660,,,familydaycare.com
Matthew-John Early Learning Centre,135 First Ave,Gerrard/Broadview,Toronto-Danforth,Jolanta Sadocha,416-466-8001,,,
Maurice Cody Child Care,364 Belsize Dr,Bayview/Millwood,Don Valley West,Kimberly Stevenson,416-484-4881,,,
McGregor Jr YMCA,555 Mortimer Ave,Coxwell/Mortimer,Toronto-Danforth,Stephanie Fraggoulis,416-463-2976,,,ymcatoronto.org
McKee McKids Enrichment Centre,35 Church Ave,Yonge/Finch,Willowdale,Heather Yeo,416-222-1414,,,
McMurrich Co-Operative Playschool,115 Winona Dr,Winona/St. Clair W.,Toronto-St. Paul's,Sona Mirzoyan,416-738-9456,,,
McMurrich Sprouts,115 Winona Dr,St. Clair/Oakwood,Toronto-St. Paul's,Brenda Evans,416-656-7957,,,
McNicoll Avenue Child Care Program,155 McNicoll Ave,Don Mills/Finch,Don Valley North,Lynn Lewis,416-499-9743,,,mcnicollchildcare.com
Meadowvale Daycare Centre,761 Meadowvale Rd,Meadowvale/Ellesmere,Scarborough-Rouge Park,Gloria Kanhai,416-281-4171,,,meadowvaledaycare.com
Metro Hall Early Learning & Child Care Centre,"55 John St, Station 1014",John/King,Spadina-Fort York,Rommy Pizarro,416-397-5171,,,toronto.ca/children/telccs
Midland Child Care Centre,4220 Midland Ave,Midland/Steeles,Scarborough-Agincourt,Beth Ho,416-291-4886,,,
Mighty Kids,14 Verral Ave,,Toronto-Danforth,Francine Brown,416-778-7575,,,
Miles Nadal Community Centre Nursery School,750 Spadina Ave,Bloor/Spadina,University-Rosedale,Cheri Szereszewski,416-924-6211,6119,,mnjcc.org
Millvalley Child Care Centre,411 Mill Rd,Burnamthorpe/Mill Rd.,Etobicoke Centre,Marlene Bali,416-621-7553,10,,
Millwood Jr YMCA,222 Mill Rd,Mill Rd./Bloor,Etobicoke Centre,Aresema Belachew,416-622-6331,,,
Miracle Montessori School Inc,"20 Upjohn Rd, 105",York Mills Rd/Don Mills Rd,Don Valley East,Haini Na,647-219-2609,,miraclemontessori618@gmail.com,
Momentum Montessori Regent Park Inc,237 Sackville St,,Toronto Centre,Taylor Aiyadurai,437-445-9220,,,momentummontessori.ca
Monarch Manor,240 Manor Rd E,,Don Valley West,Rose An,416-544-8686,,,monarchmanor.ca
Monarch Park Montessori Inc.,201 Monarch Park Ave,Danforth Ave./Greenwood,Toronto-Danforth,Huma Esmail,647-748-8822,,,monarchparkmontessori.com
Mon Petit Univers,1578 Kingston Rd,Kingston/Warden,Scarborough Southwest,Dafenid Frederic,647-403-2327,,,monpetitunivers.ca
Montessori Education Centre,16 Thorncliffe Park Dr,Thorncliffe Park Dr/Overlea Bl,Don Valley West,Imanti De Bellefeuille,416-421-0007,,,montessoried.ca
Montessori For Children (St. Clair)Inc,25 Alvin Ave,Yonge/St. Clair,Toronto-St. Paul's,Tracey Fenster,416-927-1958,,,montessoriforchildren.com
Montessori Jewish Day School Of Toronto,55 Yeomans Rd,Sheppard Ave. W./Bathurst,York Centre,Mitchel Small,416-784-5071,,,mjds.ca
Montessori Start Inc,1195 Lawrence Ave W,Lawrence/Caledonia,Eglinton-Lawrence,Rosa Marcellino,416-901-9363,,,montessoristart.com
Montessori Villa Wisdom Inc.,231 Milner Ave,,Scarborough North,Ranjana Bedi-Deonarain,647-876-5414,,,montessorivillawisdom.ca
Montrose Child Care Centre Inc.,301 Montrose Ave,Bloor W./Christie,University-Rosedale,Patricia Yan-Badilla,416-532-6675,,,
Morningside Children's Centre,292 Morningside Ave,Morningside/Kingston Rd.,Scarborough-Guildwood,Sobana Perapagaran,416-282-9956,,,
Morrish Jr YMCA,61 Canmore Blvd,Ellesmere/Morrish Rd.,Scarborough-Rouge Park,Marjorie Umali,416-724-1925,,,
Moshava Ba'Ir Day Camp Of Toronto - Preschool,819 Sheppard Ave W,Wilmington Ave/Sheppard Ave W,York Centre,Ariella Goldstein,905-370-0448,,,mbt.moshavabair.org
MothercraftBrookfield Place - 161 Bay Street,161 Bay St,,Toronto Centre,Kimberly Wint,416-367-1758,,,mothercraft.ca
Mothercraft Midtown Ced,"44 Lillian St, Unit 101",,Toronto-St. Paul's,Anita Chang,416-362-0333,,,
MothercraftRobertson House (32 Heath Street West),32 Heath St W,Yonge/St. Clair,Toronto-St. Paul's,Sonia Ferreira,416-920-3515,5115,,
MothercraftToronto Eaton Centre,14 Trinity Sq,Dundas/Bay,Toronto Centre,Lalaine Tan,416-340-9651,,,mothercraft.ca
Mother Of Compassion Child Care,40 Sewells Rd,Neilson/Sheppard,Scarborough-Rouge Park,Kristen Laaniste,416-724-1462,,,
Mount Carmel Day Care,2700 Jane St,Jane/Sheppard,Humber River-Black Creek,Mary Daisy Kalarakil,416-749-5545,,,mountcarmelsisters.com/daycare.html
Mount Dennis Early Learning & Child Care Centre,1234 Weston Rd,Jane St./Eglinton Ave W,York South-Weston,Laura Henriques,416-392-5686,,,toronto.ca/children/telccs
Mtt Davisville (10730041 Canada Inc),588 Mount Pleasant Rd,,Toronto-St. Paul's,Monice Morenzie,416-722-8311,,,mttdavisville.com
Munchkinz Preschool Inc. (2193117 Ontario Inc.),260 The Queensway,The Queensway/Park Lawn Road,Etobicoke-Lakeshore,Allison Gowing,416-252-0600,,,munchkinzpreschool.com
Muppets Children's Centre 314,314 Main St,Main/Danforth,Beaches-East York,Lama Abou-Merhi,416-690-8668,,,
Muppets Children's Centre 316,316 Main St,Main/Danforth,Beaches-East York,Abou-Merhi Lama,416-694-7888,,,
Muppets Infant & Toddler Centre 312,312 Main St,Main/Danforth,Beaches-East York,Sumaira Mala,416-693-9879,,,
Muppets Preschool Centre (Victoria Village),88 Sweeney Dr,Victoria Pk./Lawrence,Don Valley East,Christa Deneault,416-759-5159,,,victoriavillage.com/index.php
Muppets Too Preschool Centre,45 Cassandra Blvd,Lawrence/Underhill,Don Valley East,Angela Blake,416-449-3010,,,victoriavillage.com/index.php
My Little School,1492 Victoria Park Ave,Victoria Park/O'Connor,Don Valley East,Vivian Aravantinos,416-755-0305,,,victoriavillage.com/index.php
My School Co-Op Nursery School,116 Fermanagh Ave,Queen/Roncesvalles,Parkdale-High Park,A.K. Bito,416-516-2397,,,myschoolcooperative.org
N.Y.A.D. Cedar Drive,21 Gatesview Ave,Eglinton Ave. E/Markham Rd.,Scarborough-Guildwood,Derek Yiu,416-396-6123,,,
N.Y.A.D. Corvette,30 Corvette Ave,Kennedy/Eglinton,Scarborough Southwest,Sandra Holvor-Calhoun,416-266-4990,,,
N.Y.A.D. Donwood Inc,61 Dorcot Ave,Midland/Lawrence,Scarborough Centre,Lorrie Weddell,416-759-7648,,,
N.Y.A.D. Guildwood,225 Livingston Rd,Guildwood Pkwy/Livingston Rd.,Scarborough-Guildwood,Laila Baksh,416-261-6540,,,
N.Y.A.D. Mason Road,78 Mason Rd,Eglinton Ave. E./Markham Rd.,Scarborough Southwest,Shasta Roche,416-881-7397,,,
N.Y.A.D. Midland,720 Midland Ave,Midland/Eglinton,Scarborough Southwest,Lisa D'Andrade,416-264-8050,,,nyad.org
N.Y.A.D Scarborough Village,15 Luella St,Markham/Eglinton,Scarborough-Guildwood,Colleen Elmhirst,416-261-4815,,,
Narmer Montessori School,41 Glendinning Ave,,Scarborough-Agincourt,Dimiana Wasef,647-618-6977,,,
Native Child & Family Life Centre - 156 Galloway,156 Galloway Rd,Kingston Rd./Lawrence E.,Scarborough-Guildwood,Amanda Persad,437-245-7542,,,
Netivot Hatorah - South Campus,470 Glencairn Ave,Bathurst St/Lawrence Ave W,Eglinton-Lawrence,Joyce Kadoch,416-789-9958,,,netivot.com
Network Bendale Acres Child Care Centre,2920 Lawrence Ave E,Lawrence Ave E/Brimley Rd,Scarborough Centre,Yuk-Ying Chan,416-530-0722,4108,,
Network - Child's Nest Early Years And Child Care Centre - 123 Cosburn,123 Cosburn Ave,Cosburn/Pape,Toronto-Danforth,Leanne Lowes,416-530-0722,4077,,
Network Child Care Services - Child's Nest Early Learning Centre,121 Cosburn Ave,Cosburn/Pape,Toronto-Danforth,Amanda Fulton,416-530-0722,4070,,
Network Child Care Services - Dane Avenue Child Care Centre,120 Via Bagnato,Dufferin/Lawrence,Eglinton-Lawrence,Megan Samanica,416-530-0722,4044,,
Network Childcare Services - Holy Cross,299A Donlands Ave,Donlands Ave/Cosburn Ave,Toronto-Danforth,Danielle Morra,416-885-3768,,,
Network Child Care Services - Just Kids Child Care Centre,1695 Keele St,Keele/Rogers,York South-Weston,Barbara De Cicco,416-530-0722,4037,,
Network Child Care Services - Liberty Village Child Care Centre,21 Western Battery Rd,King St/Strachan Ave,Spadina-Fort York,Sylvia Taylor,416-530-0722,4211,,networkchildcare.com
Network Child Care Services - Metamorphosis Child Care Centre,40 Donlands Ave,Donlands/Danforth,Toronto-Danforth,Sally Pacheco,416-530-0722,4087,,
Network Child Care Services - Ossington Avenue North,756 Ossington Ave,Bloor W./Ossington,Davenport,Marlene Armas,416-530-0722,4028,,
Network Child Care Services - Ossington Avenue South,720 Ossington Ave,Ossington/Bloor W.,Davenport,Jessica Calouro,416-530-0722,4032,,networkchildcare.com
Network Child Care Services - St. Aidan Early Learning Centre,3521 Finch Ave E,Finch E./Warden,Scarborough-Agincourt,Stephanie C. Chung,416-530-0722,4092,,
Network Child Care Services - St. Bartholomew Child Care Centre,51 Heather Rd,Brimley Rd/Sheppard Ave E,Scarborough North,Shuyuan Sharon Sun,416-530-0722,4123,,networkchildcare.com
Network Child Care Services - St. Gabriel Lalemant,160 Crow Trail,Neilson/Finch,Scarborough North,Mariam Baroi,416-530-0722,4056,,
Network Child Care Services - St. Maria Goretti,21 Kenmark Blvd,Eglinton Ave E/Kennedy Rd,Scarborough Southwest,Nahida Akter,416-206-8374,,,
Network Child Care Services - Wade Avenue Centre,544 Lansdowne Ave,Bloor/Lansdowne,Davenport,Diane Palhinha,416-530-0722,4052,,
Network - Lansing Child Care Centre,49 Bogert Ave,Sheppard Ave W/Yonge St,Willowdale,Juvelyn Grospe,416-530-0722,4059,,
New Toronto Nursery Co-Operative Inc,153 Lake Shore Dr,Lake Shore Blvd/Ninth Str,Etobicoke-Lakeshore,Tristan Irish,416-259-8776,,,learningonthelake.org
Norman Ingram School Age YMCA,50 Duncairn Rd,Lawrence/Don Mills,Don Valley East,Nelisha Karmali,416-293-3020,,,
Norseman Jr YMCA,80 Lothian Ave,Islington/Bloor W.,Etobicoke-Lakeshore,Monica Buslon,416-917-8900,,,
Norseman School Age Program (YMCA),105 Norseman St,Bloor/Islington,Etobicoke-Lakeshore,Monica Buslon,416-917-8900,,,
North Etobicoke Jr YMCA,88 Humber College Blvd,Hwy. 27/Humber College,Etobicoke North,Susan Clarke,416-744-4265,,,
Northlea Community Child Care,305 Rumsey Rd,Eglinton/Rumsey Road,Don Valley West,Leslie Schober,416-424-2890,,,
Northview Advent Child Care,541 Finch Ave W,Finch W/Bathurst,York Centre,Alexandra Liavas,647-352-6221,,,
Northview Heights Early Learning Centre - North York,550 Finch Ave W,Bathurst/Finch,York Centre,Georgeena Sarlat,416-739-0987,,,
Northwest Childhood Learning Centre,"2978 Islington Ave, 103",Steeles W./Islington,Humber River-Black Creek,Morena Starcevic,416-740-2888,,,
Northwood Montessori,1080 Finch Ave E,,Don Valley North,Gillian Edith Hagarty,416-492-9495,,,northwoodmontessori.ca
North Yonge Child Care,27 Melrose Ave,Yonge/Wilson,Eglinton-Lawrence,Jessica Jackson,416-481-8900,,,
North Yonge Child Care 2,25 Melrose Ave,Yonge/Wilson,Eglinton-Lawrence,Jessica Jackson,416-481-8900,,,
North York Jr YMCA,567 Sheppard Ave E,Bayview/Sheppard,Don Valley North,Sham Dhanji,416-225-7773,440,,
North York Little Prints Daycare,"20 York Mills Rd, Unit 210",York Mills/Yonge,Don Valley West,Oshida Honarbakhsh,416-229-0572,,,
Norway School Age YMCA,390 Kingston Rd,Woodbine/Kingston Rd.,Beaches-East York,Steffy Lappen,647-439-9905,,,ymcagta.org
Nsheemaehn Child Care Centre,1255 Military Trail,Ellesmere/Military Trail,Scarborough-Rouge Park,Joanne McKay,416-287-7624,,,childcare.utsc.utoronto.ca
O'Connor Early Learning & Child Care Centre,1386 Victoria Park Ave,Victoria Pk./O'Connor,Beaches-East York,Courtney Sarpong,416-392-6545,,,toronto.ca/children/telccs
"O'Connor Public School, Extended Day Program",1665 O Connor Dr,Northline Road/Occonor Drive,Beaches-East York,,416-394-2072,,edp@tdsb.on.ca,tdsb.on.ca/earlyyears/extended-day-program
O'Connor Satellite Early Learning & Child Care Centre,1665 O Connor Dr,Victoria Park/O'Connor,Beaches-East York,Courtney Sarpong,416-392-3980,,,toronto.ca/children/telccs
Oakridge Junior  Playcare,110 Byng Ave,,Scarborough Southwest,Bridgette Rivaldo,416-755-9215,252,,
Oakwood Children's House,115 Winona Dr,Oakwood/St. Clair,Toronto-St. Paul's,Vicenta Tavares,416-656-3831,,,oakwoodchildrenshouse.com
Odyssey Montessori School,256 Christie St,,University-Rosedale,Mary Tomazos,416-533-9402,,,odysseymontessori.com
Odyssey Montessori School Incorporated,136 Sorauren Ave,Roncesvalles/Queen St. W.,Parkdale-High Park,Mary Tomazos,416-533-9402,,,odysseymontessori.com
Ogden Day Care Centre,33 Phoebe St,Queen/Spadina,Spadina-Fort York,Rosemary Sinopoli,416-593-0624,,,
Ola Day Care Inc.,2211 Dundas St W,Dundas St W/Bloor St,Parkdale-High Park,Ane Spiroska,647-351-6521,,oladaycare@gmail.com,
Orchard Grove Nursery Inc,100 Old Orchard Grove,,Eglinton-Lawrence,Rachel Khan,416-728-7224,,,orchardgrovenursery.com
Orde Day Care Centre (Orde Street),18 Orde St,College/University,University-Rosedale,Sandra Hejmo,416-598-3412,,,
Orde Day Care Satellite (St. Patrick Street),132 St Patrick St,Dundas/University,Spadina-Fort York,Indrani Sabessar,416-591-0040,,,
Oriole Nursery School,1570 Yonge St,St. Clair W./Yonge,Toronto-St. Paul's,Heather Brown,416-960-1293,,,oriolenurseryschool.com
Our Lady Of Fatima YMCA,3176 St Clair Ave E,St Clair/Pharmacy,Scarborough Southwest,Jennifer Armstrong,416-288-0997,,,ymcatoronto.org
Our Lady Of Grace YMCA Child Care Centre (YMCA),121 Brimwood Blvd,Finch/McCowan,Scarborough North,Amy Chang,416-293-7326,,,
Our Lady Of Peace School Age Program (YMCA),70 Mattice Ave,Kipling/Burnhamthorpe,Etobicoke Centre,Irene Grobelny,647-281-4410,,,
Our Lady Of Sorrows School Age YMCA,32 Montgomery Rd,Royal York/Bloor,Etobicoke-Lakeshore,Irene Grobelny,647-281-4410,,,
Our Lady Of Victory School Age YMCA,70 Guestville Ave,,York South-Weston,Rockey Persaud,437-225-8035,,,
Our Lady Of Wisdom YMCA,10 Japonica Rd,Ellesmere/Pharmacy,Scarborough Centre,Sol Shenian,416-447-8115,,,ymcatoronto.org
Owen Community Learning Centre,111 Owen Blvd,Bayview/York Mills,Don Valley West,Cheryl Oliver-Linton,416-730-8948,,,
Palisades Centre For Early Learning,15 San Romanoway,Jane/Finch,Humber River-Black Creek,Erin Argal,416-663-4431,221,,
Palmerston Community Daycare,734 Palmerston Ave,Bloor/Bathurst,University-Rosedale,Filomena Melo,416-533-9526,,,palmerstoncommunitydaycare.com
Pape Children's House,540 Jones Ave,Jones/Pape,Toronto-Danforth,Cherie Blades,416-463-2043,,,papechildrenshouse.com
Parkdale Childcare Centre,78 Seaforth Ave,Lansdowne/Queen W,Parkdale-High Park,Anna Ali,416-393-8386,,,
Parkdale Early Learning Centre - CDI - 119 Close Ave.,119 Close Ave,King/Dufferin,Parkdale-High Park,Judith Malcolm Barnes,416-535-6116,,,childdevelop.ca
Park Lawn Preschool,71 Ballacaine Dr,,Etobicoke-Lakeshore,Anna Torunski,416-236-2974,,,plpdaycares.com
"Parkside Elementary School, Extended Day Program",401 Cedarvale Ave,Woodbine/O'Connor,Beaches-East York,,416-394-2072,,edp@tdsb.on.ca,tdsb.on.ca/earlyyears/child-care/extended-day-programs
Parkway Forest YMCA,55 Forest Manor Rd,Don Mills/Sheppard,Don Valley North,Christina Hanna,416-773-1958,,,
Pat Schulz Child Care Centre,1 Danforth Ave,Danforth Ave./Broadview,Toronto-Danforth,Kristi Bovaconti,416-393-0939,,,
Pauline Johnson School Age YMCA,35 Dunmurray Blvd,Birchmount/Huntingwood,Scarborough-Agincourt,Ranu Singh,416-913-0958,,,
Percy Williams YMCA,35 White Heather Blvd,,Scarborough North,Rubala Jeganathan,416-298-8911,,,
Perth Avenue Early Learning Centre,14 Ruskin Ave,Symington/Bloor,Davenport,Judeen Longmore,416-533-2575,,,
Petitecare,1419 Gerrard St E,,Toronto-Danforth,Amber Prentice,647-877-2273,,,
Petite Luminaries Childcare,"155 Gordon Baker Rd, 112",Gordon Baker Road/McNicoll Ave,Don Valley North,Rasholeen Nakra,416-756-9797,,,petiteluminaries.com
Petite Maison Montessori,126 O Connor Dr,O'Connor/Broadview,Toronto-Danforth,Navjot Kaur,416-429-0507,,,petitemaison.ca
Petit Pearson Child Care - North York,7 Snowcrest Ave,Bayview/Cummer,Don Valley North,Almani Zakia,416-222-2769,,,
Phoenix Child Centre,625 Seneca Hill Dr,Finch/Don Mills,Don Valley North,Heather Doherty,416-492-8888,,,phoenixchildcentre.com
Phoenix Montessori School Inc.,2 Station Rd,Station Road/Mimico Ave,Etobicoke-Lakeshore,Christina Dinardo,416-695-1212,,,
Pineway Child Care Learning Center,110 Pineway Blvd,Leslie/Cummer,Don Valley North,Jackie Sant,416-225-7156,,,icsg.ca
Pinnacle Jr YMCA,"12 Yonge St, Unit 1",Yonge/Queen's Quay,Spadina-Fort York,Alexandra Holland,416-849-3316,,,
Plains Road Child Care Inc.,520 Plains Rd,Woodbine/O'Connor,Beaches-East York,Karen Arnold,416-421-2273,,,
Plasp All Saints Catholic School,1435 Royal York Rd,Royal York/Eglinton W.,Etobicoke Centre,Support Toronto Parent,1-888-739-4102,,,
Plasp Bennington Heights Ps,76 Bennington Heights Dr,Heath St E/Bayview Ave,Don Valley West,Support Toronto Parent,1-888-739-4102,,,
Plasp Blessed Sacrament C.S.,24 Bedford Park Ave,Yonge St/Bedford Park Ave,Eglinton-Lawrence,Support Toronto Parent,1-888-739-4102,,,
Plasp Blythwood Junior Public School,2 Strathgowan Cres,,Don Valley West,Support Toronto Parent,1-888-739-4102,,,
Plasp - David Hornell Junior School,32 Victoria St,Lake Shore Blvd W/Park Lawn,Etobicoke-Lakeshore,Support Toronto Parent,1-888-739-4102,,,plasp.com
Plasp Divine Mercy C.S.,101 Van Horne Ave,Don Mills Rd/Finch Ave E,Don Valley North,Support Toronto Parent,1-888-739-4102,,,
Plasp Father Serra Catholic School,111 Sun Row Dr,Islington/The Westway,Etobicoke Centre,Support Toronto Parent,1-888-739-4102,,,
Plasp Holy Angels Catholic School,65 Jutland Rd,Islington/Jutland,Etobicoke-Lakeshore,Support Toronto Parent,1-888-739-4102,,,plasp.com
Plasp Humber Valley Village Junior Middle School,65 Hartfield Rd,The Kingsway/Islington Ave.,Etobicoke Centre,Support Toronto Parent,1-888-739-4102,,,
Plasp Inglewood Heights Junior Public School,45 Dempster St,,Scarborough-Agincourt,Support Toronto Parent,1-888-739-4102,,,
Plasp Islington Junior Middle School,44 Cordova Ave,Islington/Dundas,Etobicoke-Lakeshore,Support Toronto Parent,1-888-739-4102,,,plasp.com
Plasp James Culnan Catholic School,605 Willard Ave,Jane/Annette,Parkdale-High Park,Support Toronto Parent,1-888-739-4102,,,plasp.com
Plasp James S Bell Junior Middle School,90 Thirty First St,Lake Shore/Brown's Line,Etobicoke-Lakeshore,Support Toronto Parent,1-888-739-4102,,,plasp.com
Plasp Kingsview Village Junior School,1 York Rd,Islington/Dixon,Etobicoke North,Support Toronto Parent,1-888-739-4102,,,plasp.com
Plasp Lanor Junior Middle School,450 Lanor Ave,,Etobicoke-Lakeshore,Support Toronto Parent,1-888-739-4102,,,
Plasp Mother Cabrini Catholic School,720 Renforth Dr,,Etobicoke Centre,Support Toronto Parent,1-888-739-4102,,,
Plasp Nativity Of Our Lord Catholic School,35 Saffron Cres,Renforth/Rathburn,Etobicoke Centre,Support Toronto Parent,1-888-739-4102,,,plasp.com
Plasp North Bridlewood Junior Public School,50 Collingsbrook Blvd,,Scarborough-Agincourt,Support Toronto Parent,1-888-739-4102,,,
Plasp Parkfield Junior School,31 Redgrave Dr,Redgrave Dr/Martin Grove Rd,Etobicoke North,Support Toronto Parent,1-888-739-4102,,,
Plasp Pauline Junior Public School,100 Pauline Ave,Dufferin St/Bloor St W,Davenport,Support Toronto Parent,1-888-739-4102,,,
Plasp St. Agnes - Toronto,280 Otonabee Ave,Moxome Ave/Steeles Ave E,Willowdale,Support Toronto Parent,1-888-739-4102,,,plasp.com
Plasp St. Albert Catholic School,1125 Midland Ave,Midland Ave/Lawrence Ave E,Scarborough Centre,Support Toronto Parent,1-888-739-4102,,,
Plasp St. Cecilia Catholic School,355 Annette St,Runnymede/Annette,Parkdale-High Park,Support Toronto Parent,1-888-739-4102,,,plasp.com
Plasp St. Clement Catholic School,4319 Bloor St W,Bloor St W/Mill Rd,Etobicoke Centre,Support Toronto Parent,1-888-739-4102,,,plasp.com
Plasp St. Conrad Catholic School,5 Exbury Rd,Roding St/Calvington Dr,York Centre,Support Toronto Parent,1-888-739-4102,,,
Plasp St. Elizabeth Catholic School,5 Redcar Ave,Bloor/East Mall,Etobicoke-Lakeshore,Support Toronto Parent,1-888-739-4102,,,plasp.com
Plasp St. Isaac Jogues Catholic School - Tor,1330 York Mills Rd,,Don Valley East,Support Toronto Parent,1-888-739-4102,,,
Plasp St. Louis C.S.,11 Morgan Ave,The Queensway/Royal York Rd,Etobicoke-Lakeshore,Support Toronto Parent,1-888-739-4102,,,
Plasp St. Margaret C.S.,85 Carmichael Ave,,Eglinton-Lawrence,Support Toronto Parent,1-888-739-4102,,,
Plasp St. Norbert Catholic School,60 Maniza Rd,Maniza Rd/Wilson Ave,York Centre,Support Toronto Parent,1-888-739-4102,,,
Plasp St. Pius X Catholic School,71 Jane St,Jane St./Bloor St. W.,Parkdale-High Park,Support Toronto Parent,1-888-739-4102,,,plasp.com
Plasp St. Simon C.S.,24 Strathburn Blvd,Albion Rd/Weston Rd,Humber River-Black Creek,Support Toronto Parent,1-888-739-4102,,,
Plasp Steelesview Public School,105 Bestview Dr,Steeles Ave E/Laureleaf Rd S,Don Valley North,Support Toronto Parent,1-888-739-4102,,,
Plasp St Eugene Catholic School,30 Westroyal Rd,The Westway/Royal York Road,Etobicoke Centre,Support Toronto Parent,1-888-739-4102,,,
Plasp Sts. Cosmas And Damian C.S,111 Danesbury Ave,Marlee Ave/Glencairn Ave,Eglinton-Lawrence,Support Toronto Parent,1-888-739-4102,,,
Plasp Summit Heights P.S.,139 Armour Blvd,Wilson Ave/Bathurst St,York Centre,Support Toronto Parent,1-888-739-4102,,,plasp.com
Plasp Transfiguration Of Our Lord Catholic School,55 Ludstone Dr,Dixon Rd./Kipling Ave.,Etobicoke Centre,Support Toronto Parent,1-888-739-4102,,,
Plasp Twentieth Street Junior School,3190 Lake Shore Blvd W,,Etobicoke-Lakeshore,Support Toronto Parent,1-888-739-4102,,,
Play And Grow Child Care Centre,227 Drewry Ave,Yonge St/Finch Ave W,Willowdale,Marina Peitos,416-395-5098,,,
Playhouse Child Care Centre,15 Greenland Rd,Lawrence/Don Mills,Don Valley East,Posy Suri,416-441-3170,,,
Playland Ltd  - Daycare Centre,"5050 Dufferin St, 106",Dufferin/Steeles,York Centre,Xin Liu,647-988-8940,,,playlandltd.com
Play Loft,583 Danforth Ave,,Toronto-Danforth,Rhydima Deshpande,416-406-0110,,,playloft.ca
Pleasant Child Care Of North York,"288 Pleasant Ave, 101 & 103",Yonge/Steeles,Willowdale,Hamideh Habibi,416-733-2280,,,
Plp Early Learning At St. Mark,45 Cloverhill Rd,Park Lawn/The Queensway,Etobicoke-Lakeshore,Susana Contente-Lefkos,416-259-9335,,,
Pope Francis (North York Little Prints Daycare),319 Ossington Ave,Dunda St/Ossington,University-Rosedale,Chantel Nunes,416-458-3527,,,
Port Royal Jr YMCA,410 Port Royal Trail,Brimley/Steeles,Scarborough North,Rubala Jeganathan,416-298-8911,,,
Posluns Education Centre,18 Neptune Dr,Bathurst St/Wilson Ave,Eglinton-Lawrence,Tova Segal,416-787-1872,,,associatedhebrewschools.com
Precious Blood  Jr YMCA Elp,1035 Pharmacy Ave,,Scarborough Centre,Yvonne Lin,416-490-1624,,,
Precious Ones Bilingual Preschool Corp.,233 Westview Blvd,,Beaches-East York,Dominique Romain Fournier,416-755-0004,,,preciousones.ca
Pride In Heritage Children's Centre,55 Gateway Blvd,Don Mills/Overlea,Don Valley East,Rosemarie Ritchie,416-467-5981,,,pihcc.ca
Prince Edward Montessori School Of Toronto,2850 Bloor St W,Bloor/Prince Edward,Etobicoke-Lakeshore,Bozena Nowicka-Lipa,416-234-9127,,,princeedwardmontessori.com
Princess Margaret Nursery School,70 Princess Anne Cres,Eglinton Ave W Trl/Islington,Etobicoke Centre,Kevin Ribeiro,416-889-9403,,princessmargaretns@hotmail.com,
Prodigy Learning Centre,1545 Jane St,Jane/Lawrence W.,York South-Weston,Simran Kaur Puri,416-241-1902,,,
Progress Childcare (Scarborough Inc. #1 (3 Glamorgan),3 Glamorgan Ave,Kennedy/Hwy. 401,Scarborough Centre,Maria Wisniowska,416-291-3368,,,
Prosserman Jcc - Daycare And Preschool,4588 Bathurst St,Bathurst/Sheppard,York Centre,Leah Levy,416-638-1881,4250,,
Purple Tree Child Care Inc.,384 Soudan Ave,Mt. Pleasant/Eglinton Ave. E,Don Valley West,Debra Levin,416-932-9119,,,
Queen's Park Child Care Centre,7 Queens Park Cres E,University And College St,University-Rosedale,Marie Thomson,416-972-9979,,,
Queen Street Childcare Centre,10 White Squirrel Way,Queen Street W./Shaw Street,Spadina-Fort York,Charlotte De Souza,416-535-6701,,,
Queen Victoria Child Care Centre,100 Close Ave,King/Jameson,Parkdale-High Park,Connie Mackenzie,416-530-0683,,,
Rainbow's End Day Care Satellite,33 Lamberton Blvd,,Humber River-Black Creek,Carron Allen,416-633-4718,,,
Rainbow Village Childcare Centre (Mid-Scarborough Child Care),2460 Eglinton Ave E,Eglinton/Midland,Scarborough Centre,Nelly Daniels,416-266-5835,,,
Ranchdale Rompers Day Care,60 Ranchdale Cres,Victoria Pk./Ellesmere,Don Valley East,Donna Ciccarelli,416-441-1233,,,
Ranleigh Rascals,81 Ranleigh Ave,Yonge St./Lawrence Ave. E.,Don Valley West,Selina Boyer,416-487-2373,,,
Rawlinson B & A School Program,231 Glenholme Ave,Rogers Rd./Oakwood Ave.,Davenport,Diana Lurde,416-394-3079,,,
Rawlinson Early Learning & Child Care Centre,40 Earnscliffe Rd,Oakwood/St. Clair W.,Davenport,Emma Townson,416-392-5068,,,toronto.ca/children/telccs
Rec Room Child Care,69 Long Branch Ave,,Etobicoke-Lakeshore,Lee Won-Hi,647-717-7733,,,
Rec Room Child Care @mimico,46 Mimico Ave,,Etobicoke-Lakeshore,Rani Harpale,437-880-8215,,,
Red Apple Day Care (Overlea),135 Overlea Blvd,Don Mills/Overlea,Don Valley West,Donna Robinson,416-429-5437,,,redappledaycare.com
Red Apple Day Care - Rouge Valley,8450 Sheppard Ave E,Sheppard Ave E/Morningside Ave,Scarborough-Rouge Park,Ruby Malobago,416-900-4845,,,redappledaycare.com
Red Apple Day Care - St John XXIII,175 Grenoble Dr,Gateway Blvd./Don Mills,Don Valley East,Neena Locke,416-429-6662,,,redappledaycare.com
Regent Park Early Learning & Child Care Centre,40 Regent St,Dundas/Parliament,Toronto Centre,Windelynn Ortal,416-392-5513,,,toronto.ca/children/telccs
Rejoyce Caledon Community Child Care,26 Joyce Pky,Dufferin/Lawrence,Eglinton-Lawrence,Nimet Kara,416-789-1485,,,
Rendezvous Child Care Centre,18 Dallington Dr,Sheppard/Leslie,Don Valley North,Martha Sinclair,416-490-9360,,,
Rene Gordon School Age YMCA,20 Karen Rd,York Mills/Victoria Park,Don Valley East,Nelisha Karmali,416-293-3020,,,
Rexdale Day Nursery,925 Albion Rd,Islington/Albion,Etobicoke North,Laura Infusini,416-743-5057,,,
Rhyme & Reason Day Care,474 Browns Line,Brown's Line/Horner Ave.,Etobicoke-Lakeshore,Josie Blais,416-255-3008,,,
Ridley Orchard School Ltd.,1920 Avenue Rd,,Eglinton-Lawrence,Sophie Gretes,416-482-3272,,,ridleyorchardschool.com
Rippleton Roadsters Child Care Program,21 Rippleton Rd,Leslie/Lawrence,Don Valley West,Denise Cochrane,416-449-4559,,,
Rippleton Roadsters Satellite Program,1340 Leslie St,Leslie St./Lawrence Ave. E.,Don Valley West,Denise Cochrane,416-449-4559,,,
Riverdale Learning Loft Inc.,433 Pape Ave,,Toronto-Danforth,Joanna Kontonikolas,416-904-3606,,,
Riverdale Mighty Kids Corp,842 Gerrard St E,,Toronto-Danforth,Francine Brown,416-778-7575,,,
Robbins Hebrew Academy,1700 Bathurst St,,Toronto-St. Paul's,Blaire Hennick,416-224-8737,,,
Rockford Child Care,60 Rockford Rd,Bathurst/Steeles,York Centre,Amanda De Palma,416-663-6286,,,uppercanadachildcare.com
Roden Community Child Care Centre,151 Hiawatha Rd,Coxwell/Gerrard,Toronto-Danforth,Susan Scharlach,416-461-3010,,,
Rolph Road Day Care,31 Rolph Rd,Bayview/Eglinton,Don Valley West,Janet Moreau,416-487-5862,,,
Rolph Road - Leaside Day Care Centres (St. Anselm),182 Bessborough Dr,Bayview Ave./Millwood Rd.,Don Valley West,Frances Quin,416-487-5862,,,
Romero Bears Child Care Centre,99 Humber Blvd,Weston/Humber Blvd.,York South-Weston,Melissa Oliveira,416-509-0159,,,
Rosalie Hall Early Learning And Child Care Centre,3020 Lawrence Ave E,Lawrence/McCowan,Scarborough Centre,Chenise McCollins,416-438-6880,252,,
Rosedale Moore Park Association/Mooredale Preschool - Coach House,146 Crescent Rd,Mt. Pleasant/Bloor St. E.,University-Rosedale,Michelle Distefano,416-922-3714,113,,mooredale.com
Rosedale Moore Park Association/Mooredale Preschool - Main House,146 Crescent Rd,Mt. Pleasant/Bloor St. E.,University-Rosedale,Michelle Distefano,416-922-3714,113,,mooredale.com
Rosethorn Before And After School Program,2 Remington Dr,Rathburn/Kipling,Etobicoke Centre,Yosi Von Biela,416-239-4682,,,
Rouge Valley Jr YMCA,30 Durnford Rd,Sheppard E./Kingston Road,Scarborough-Rouge Park,Brenda O Grady,416-282-7253,,,
Rowntree Early Learning & Child Care Centre,2765 Islington Ave,Islington/Finch,Etobicoke North,Rosemary Amevenu,416-392-5089,,,toronto.ca/children/telccs
Royal Day Care Weston Inc,1737 Weston Rd,Weston/Lawrence W.,York South-Weston,Sharon Brown,416-249-9115,,,
Royal York Childcare Inc,74 Royal York Rd,,Etobicoke-Lakeshore,Nicole Canejo,416-259-1007,,,
Royal York Road School,851 Royal York Rd,Royal York/Bloor,Etobicoke-Lakeshore,Maria Atter,416-239-1555,,,ryrns.ca
Roywood Child Care North York,11 Roywood Dr,York Mills/Victoria Park,Don Valley East,Heather Boutcher,416-391-0222,,,
Runnymede Adventure Club,357 Runnymede Rd,Runnymede/Annette,Parkdale-High Park,Pamela McArthur,416-766-5599,,,
Ryerson Early Learning Centre (Ryerson University),350 Victoria St,Yonge/Dundas,Toronto Centre,Chanelle Henry,416-979-5338,,,
Sadochok Preschool Centre,35 West Deane Park Dr,Rathburn/East Mall,Etobicoke Centre,Galyna Bilous,416-626-7195,,,sadochokpreschool.com
Sandalwood Centre For Early Learning (Centres For Early Learning Inc.),1825 Finch Ave W,Jane/Finch,Humber River-Black Creek,Natasha Reid,416-638-0357,231,,
Sandbox Day Care Centre,15 Orton Park Rd,Lawrence/Orton Pk.,Scarborough-Guildwood,Lisa George,416-431-3327,,,
San Romanoway Boys & Girls Club,"10 San Romanoway, Ground Floor, North Wing",Jane/Finch Ave. W.,Humber River-Black Creek,Stephnie Payne,416-739-7949,,,srra.ca
Scarborough Citadel Child Care,2021 Lawrence Ave E,Lawrence/Warden,Scarborough Centre,Kimberly Sturge,416-759-1721,4,,
Scarborough Day Nursery School,51 Eastwood Ave,Kingston Rd./Warden,Scarborough Southwest,Oma Dalloo,416-698-5833,,,
Scarborough Jr YMCA,230 Town Centre Crt,McCowan/Ellesmere,Scarborough Centre,Erin Andersen,416-296-9907,,,
Scarborough Village Day Nursery 1,215 Markham Rd,Markham/Eglinton,Scarborough-Guildwood,Tanya Robinson,416-261-5048,,daynursery@rogers.com,
Scarborough Village Day Nursery 2,155 Markham Rd,Markham/Kingston Rd.,Scarborough-Guildwood,Habiba Badani,416-267-8881,,,
Score Day Camp,2760 Bathurst St,Bathurst/Glencairn Ave,Eglinton-Lawrence,Jeff Krupski,416-709-6383,,,scoredaycamp.com
Seafield Day Nursery,"100 York Gate Blvd, 109",Jane/Finch,Humber River-Black Creek,Mojan Jenab,416-663-0596,,,seafielddaynursery.com
Second Street School Age YMCA,71 Second St,Lake Shore Blvd W/Islington,Etobicoke-Lakeshore,Filomena Zita,416-252-8544,,,
Secord School Age YMCA,91 Barrington Ave,Main St./Danforth Ave.,Beaches-East York,Steffy Lappen,647-439-9905,,,ymcatoronto.org
Selwyn Community Child Care Centre,1 Selwyn Ave,St. Clair/O'Connor,Beaches-East York,Ruby Moayer,416-285-9730,,,
Seneca Hill Centre For Early Learning,"350 Seneca Hill Dr, Suite 101",Finch/Don Mills,Don Valley North,Andrea Leach,416-499-5112,221,,
Shaawnong Aboriginal Head Start,935 Dundas St E,Dundas/Broadview,Toronto-Danforth,Amanda Macewen,416-639-9036,,,
Shaughnessy Boulevard Children's Centre,30 Shaughnessy Blvd,Don Mills/Sheppard,Don Valley North,Sam Holt,416-499-6500,,,
Sheppard Business Park Child Care Centre,"1220 Sheppard Ave E, 112",Sheppard/Leslie,Don Valley North,Lucy Di Benedetto,416-499-1499,,,
Sheppard Square Day Nursery,5600 Sheppard Ave E,Markham/Sheppard,Scarborough North,Tracey Van Pedro,416-292-3607,,,
Shirley Street Jr YMCA,38 Shirley St,Dundas/McLarens,Davenport,Lindsay Barnett,416-849-3642,,,
"Shoreham Public Sports And Wellness Academy, Extended Day Program",31 Shoreham Dr,Jane Street/Shoreham Drive,Humber River-Black Creek,,416-394-2072,,edp@tdsb.on.ca,tdsb.on.ca/earlyyears/extended-day-program
Silver Creek Centre For Early Learning & Development,65 Hartsdale Dr,Eglinton Ave. W./Isslington,Etobicoke Centre,Irena Setnik,416-249-9770,,,silvercreekpreschool.ca
Silver Springs Extended Day & School Age Program,222 Silver Springs Blvd,Finch Ave E/Kennedy Rd,Scarborough-Agincourt,Jing Jing Liu,416-291-0023,,,
Silverstone Learning Centre,520 Silverstone Dr,Finch W./Martin Grove Rd.,Etobicoke North,Cynthia Rampaul,416-741-0414,,,
Simcoe Sunshine Child Care (166 Sylvan Avenue),166 Sylvan Ave,Markham/Kingston,Scarborough-Guildwood,Kim Rogers,416-264-4958,,,
Simplysmart Childcare Centre & Montessori,2271 Bloor St W,,Parkdale-High Park,Christina Calarco,647-369-8255,,,simplysmartchildcare.com
Sir Samuel B Steele Jr YMCA,131 Huntsmill Blvd,McNicoll/Warden,Scarborough-Agincourt,Maryam Sabri,647-438-6689,,,ymcatoronto.org
Small World Big Dreams Child Care Centre Inc.,"1085 Midland Ave, 1051",,Scarborough Centre,Sarah Lacanlale,647-808-2514,,,
Smart Start Montessori School (1416786 Ontario Limited),2660 Kennedy Rd,Kennedy/Huntingwood,Scarborough-Agincourt,Alicia Gomez,416-644-1130,,,
Sonechko Daycare Incorporated,301 Lanor Ave,Kipling Ave./Evans Ave.,Etobicoke-Lakeshore,Anna Gavris,416-255-7555,,,sonechko.net
Sprucecourt Child Care Centre,70 Spruce St,Parliament/Gerrard,Toronto Centre,Andrea Prifti,416-922-8827,,,
St. Alban's Boys And Girls Club Preschool,843 Palmerston Ave,Dupont/Bathurst,University-Rosedale,Karen Grant,416-534-8461,,,
St. Alphonsus,540 St Clair Ave W,Vaughan/St. Clair,Toronto-St. Paul's,Rosemary Mdota,416-651-2664,,,
St.Ambrose YMCA,20 Coules Crt,Brown's Line/Evans,Etobicoke-Lakeshore,Irene Grobelny,647-281-4410,,,ymcatoronto.org
St. Andrew Child Care Centre,2533 Kipling Ave,Finch/Kipling,Etobicoke North,Heather Repton,416-742-2228,,,lefca.org
"St. Bartholomew's Children's Centre, Regent Park Inc.",38 Regent St,,Toronto Centre,Marlone Dawkins,416-368-6375,,,
St. Bede Child Care Centre,521 Sewells Rd,Morningside/Sewells,Scarborough-Rouge Park,Ev Wilson,416-724-7132,,,
St. Bernadette's Family Resource Centre,20 Bansley Ave,Oakwood/Eglinton,Toronto-St. Paul's,Connie Naccarato,416-397-6300,,,
St. Boniface Jr YMCA,20 Markanna Dr,Kingston Rd./Markham,Scarborough Southwest,Felicia Bryan,416-261-9092,,,ymcatoronto.org
St. Brendan Kindergarten Before & After School Program,186 Centennial Rd,Lawrence Ave. E./Centennial Rd,Scarborough-Rouge Park,Sanaa Maher,416-281-0262,230,,
St. Clement's Early Learning School,70 St Clements Ave,Yonge/Eglinton,Eglinton-Lawrence,Marsha Hamilton,416-489-0822,,,scels.ca
St. Columba Catholic School,10 John Tabor Trail,Neilson Rd/Sewells Rd,Scarborough-Rouge Park,Amanda Sellers,437-216-1831,,,
St. Crispins Day Care Centre,530 Midland Ave,St Clair Ave E./Midland,Scarborough Southwest,Tanya Peters,416-267-1618,,,
St. Cyril's Before & After School Programme,18 Kempford Blvd,Yonge/Finch,Willowdale,Josee Chan,416-222-0151,,,
St. Dorothy Child Care Centre,155 John Garland Blvd,Martingrove/Finch,Etobicoke North,Montserrat Bassas,416-745-9892,,,
St. Edward YMCA,1 Botham Rd,Yonge/Sheppard,Willowdale,Navi Grewal,416-221-5000,,,
St. Fidelis Child Care Centre,155 Falstaff Ave,Jane St/Black Creek Dr,York South-Weston,Preeti Goyal,416-245-2446,,,
St. Fidelis Early Learning Centre,9 Bannerman St,Keele St/Lawrence Ave W.,York South-Weston,Preeti Goyal,416-245-2446,,,
St. Francis De Sales Jr Y,333 Firgrove Cres,Jane/Finch,Humber River-Black Creek,Debbie Silvester,647-438-6372,,,ymcatoronto.org
St. Gabriel's Jr YMCA,396 Spring Garden Ave,Bayview/Sheppard,Willowdale,Navi Grewal,416-221-5000,,,
St. George's School Age Child Care Programme,70 Princess Anne Cres,Eglinton Ave W Trl/Islington A,Etobicoke Centre,Jennifer Nguyen,416-576-3731,,,
St. George Mini School Inc,25 Mallard Rd,,Don Valley East,Skylar Zhou,647-812-7795,,,stgeorgeminischool.ca
St. George Mini School Inc - Bond,141 Bond Ave,Don Mills/York Mills,Don Valley East,Jenna I Wright,647-478-6043,,,stgeorgeminischool.ca
St. George Mini School - Mallard,33 Mallard Rd,Don Mills Rd/York Mills Rd,Don Valley East,Sarah Ashfield,647-478-6114,,,stgeorgeminischool.ca
St. Gregory's Before & After School Club,126 Rathburn Rd,Rathburn/Kipling,Etobicoke Centre,Pam Taskinen,416-236-8794,,,
St. Jerome Jr YMCA,111 Sharpecroft Blvd,Keele/Sheppard,York Centre,Rockey Persaud,437-225-8035,,,
St. Joseph Jr YMCA,176 Leslie St,Dundas St E/Leslie St,Toronto-Danforth,Steffy Lappen,647-439-9905,,,ymcatoronto.org
St. Lawrence Co-Operative Day Care (2 Princess Street),2 Princess St,Sherbourne/The Esplanade,Spadina-Fort York,Anna Marie Sison,416-363-9506,,,
St. Lawrence Co-Operative Day Care School Age (230 The Esplanade),230 The Esplanade,Esplanade/Parliament,Toronto Centre,Fil Lacaria,416-363-9425,,,
St. Lawrence Infant Toddler Centre (4 Market Street),4 Market St,Esplanade/Jarvis,Spadina-Fort York,Grace Kingston,416-363-5989,,,
St. Leo's YMCA Child Care,271 Royal York Rd,,Etobicoke-Lakeshore,Ashley Thompson,416-930-5467,,,
St. Malachy Before & After School Program,80 Bennett Rd,Lawrence Ave E/Beechgrove,Scarborough-Rouge Park,Sanaa Maher,416-281-0262,230,,
St. Marcellus Early Learning Centre,15 Denfield St,Eglinton/Kipling,Etobicoke Centre,Kristina Mariano,416-248-1803,,,
St. Michael And All Angels Day Care Centre,611 St Clair Ave W,St. Clair/Bathurst,Toronto-St. Paul's,Novea Lawson,416-653-1424,,,stmichaelsdaycare.com
St. Monica's Satellite (Central Eglinton),14 Broadway Ave,,Don Valley West,Kristen Dubois,416-440-0383,,,centraleglintonchildrenscentre.com
St. Nicholas Child Care Centre - Network,1020 McNicoll Ave,Victoria Park/Steeles Ave E,Scarborough-Agincourt,Fei Huang,416-530-0722,4095,,
St. Paschal Baylon,15 St Paschal Crt,Yonge/Steeles,Willowdale,Hamideh Habibi,416-733-2280,,,
St. Robert School Age YMCA,70 Bainbridge Ave,Bathurst/Sheppard Ave W,York Centre,Rockey Persaud,437-225-8035,,,ymcagta.org
St. Roch Child Care Centre,"174 Duncanwoods Dr, Childcare In The Back",Islington/Steeles,Humber River-Black Creek,Grace Addai,416-744-7785,,,lefca.org
St. Rose Of Lima YMCA Child Care,3220 Lawrence Ave E,McCowan/Lawrence,Scarborough-Guildwood,Mavis Campbell,647-439-0016,,,
St. Stephen Child Care Centre,55 Golfdown Dr,,Etobicoke North,Sandra Partipilo,416-519-5760,,,
St. Sylvester Child Care Centre,260 Silver Springs Blvd,Finch Ave E/Kennedy,Scarborough-Agincourt,Jing Jing Liu,416-291-0023,,,
St. Timothy YMCA Child Care,25 Rochelle Cres,Sheppard/Don Mills,Don Valley North,Rakhi Bhattacharya,647-985-4560,,,ymcatoronto.org
St. Ursula Licensed Before And After School Program,215 Livingston Rd,,Scarborough-Guildwood,Sanaa Maher,416-281-0262,230,,
St. Vincent Sunshine,116 Fermanagh Ave,Roncesvalle/N. Of Queen St W,Parkdale-High Park,Rebecca Alhairi,416-532-0428,,,
St. Wilfred YMCA,1685 Finch Ave W,Finch W./Jane,Humber River-Black Creek,Rockey Persaud,437-225-8035,,,ymcatoronto.org
St Agatha Catholic Before & After School Program,49 Cathedral Bluffs Dr,McCowen And Kingston,Scarborough Southwest,Vanessa Sterling,416-320-5807,,,
Start Right Child Care Centre,38 Orfus Rd,Dufferin/Lawrence,Eglinton-Lawrence,Lona Gayle,416-781-7066,,,startrightchildcare.com
Stepping Stones Day Nursery,342 Runnymede Rd,Runnymede/Bloor,Parkdale-High Park,Mechelle O'Brien - Nedd,416-769-9719,,,ssdaycare.com
Stilecroft Superkids,50 Stilecroft Dr,Keele/Sheppard,York Centre,Cynthia Bass,416-638-0352,,,
St Mark's Day Care Centre - Greenland Road,1 Greenland Rd,Don Mills/Lawrence,Don Valley East,Iren Telemi,416-444-6948,,,
"Studio 1,2,3 Early Learning Centre","401 Richmond St W, Box 123",Richmond/Spadina,Spadina-Fort York,Kathryn Firth,416-343-0093,,,
St Victor Catholic School Before & After Child Care Program,20 Bernadine St,Ellesmere Rd/Brimley Rd,Scarborough Centre,Anushi Jay,647-289-7259,,,
Sunburst Children's Centre,4905 Dufferin St,Dufferin/Steeles,York Centre,Cathy Orr,416-739-4684,,,sunburstchildcare.ca
Sunflower House,162 Dunn Ave,Dunn/King,Parkdale-High Park,Melissa Oliveira,416-530-0884,,,
Sunnybrook Creche,2075 Bayview Ave,Bayview/Lawrence,Don Valley West,Antonietta Monaco,416-480-4465,,,crechechildcare.org
Sunny Faces Day Care Centre - Rivercrest,30 Harefield Dr,Kipling/Elmhurst,Etobicoke North,Jamila Barrett,416-744-0778,,,
Sunny Faces Day Care Centre - St. Benedict Site,2202 Kipling Ave,Kipling/Rexdale Blvd.,Etobicoke North,Jamila Barrett,416-744-0778,,,
Sunnylea Child Care Centre,35 Glenroy Ave,Royal York/Bloor,Etobicoke-Lakeshore,Nandini Deena,416-233-6509,,,
Sunnylea Co-Operative Nursery School,86 Montgomery Rd,,Etobicoke Centre,Rose Angeli,416-716-1258,,,
Sunnyside Day Care - Roncesvalles,10 High Park Blvd,Dundas St. W./Bloor St.,Parkdale-High Park,Lauren Coxon,416-538-9654,,,sunnysidedaycare.com
Sunnyside Garden Day Care,225 Garden Ave,Queen W./Roncesvalles,Parkdale-High Park,Opal Hassock-Davis,416-533-2008,,,sunnysidegardendaycare.com
Sunnyside - Keele,236 Keele St,Bloor/Keele,Parkdale-High Park,Willow Turner,416-766-0312,,,sunnysidedaycare.com
Sunshine Child Care Centre (Mackie Sunshine C C. Inc)60 Heathfield,60 Heathfield Dr,Eglinton Ave./Kingston Rd.,Scarborough-Guildwood,Michele Dasilva,416-269-6309,,,
Sunshine Kids,"1 Westside Dr, 8",,Etobicoke-Lakeshore,Milica Scekic,416-622-7529,,,
Swansea Kids Place,207 Windermere Ave,Windermere/Queensway,Parkdale-High Park,Dawn Rhymer,416-763-1908,,,
Taddle Creek Montessori School,39 Spadina Rd,,University-Rosedale,Anne Smith,416-413-9493,,,
Tamarack Day Care Centre (765566 Ontario Inc),3315 Midland Ave,Midland/Finch,Scarborough North,Rowena Leung,416-293-3152,,,
Taylor Creek Early Learning & Child Care Centre,644 Warden Ave,Warden/St. Clair E.,Scarborough Southwest,Sharleen Jordan,416-392-5042,,,toronto.ca/children/telccs
"Taylor Creek Public School, Extended Day Program",644 Warden Ave,Danforth Road/Warden Avenue,Scarborough Southwest,,416-394-2072,,edp@tdsb.on.ca,tdsb.on.ca/earlyyears/extended-day-program
Teach Me To Fly Preschool,2560 Gerrard St E,,Scarborough Southwest,Eloise Morrison,647-295-2176,,,
Teddy Bear Academy,167 High Park Ave,High Park Ave./Annette,Parkdale-High Park,Aleena Persaud,647-351-1566,,,teddybearacademy.ca
Teddy Bear Educare Advance,86 Advance Rd,Advance Rd./Islington,Etobicoke-Lakeshore,Sabina Sawula,416-236-3308,,,teddybeareducare.com
Temple Sinai Nursery School,210 Wilson Ave,Avenue Rd./Wilson,Eglinton-Lawrence,Jenna Stern,416-903-2188,,,templesinai.net
Terraview-Willowfield Extended Day Program,95 Pachino Blvd,Victoria Park Ave/Hwy 401,Scarborough Centre,Mary Gatti,647-669-6201,,,
Terry Tan Child Care (Rossburn)Facility #4450,15 Rossburn Dr,Bloor/The West Mall,Etobicoke Centre,Michelle Fraser,416-621-9722,201,,terrytan.ca
Terry Tan Child Centre (Bloordale),4258 Bloor St W,Bloor St. W./West Mall,Etobicoke Centre,Christine Mackey,416-621-4822,,,terrytan.ca
Tfs Canada's International School (Mildenhall Branch),101 Mildenhall Rd,Lawrence Ave East/Bayview Av,Don Valley West,Celine Lebel,416-484-6980,4355,,tfs.ca
The Alderbuds Child Care Centre Of Etobicoke,399 The West Mall,The West Mall/Burnhamthorpe,Etobicoke Centre,Rita Ariganello-Verteouris,416-394-8284,,,
The Castle Child Care Centre,4480 Eglinton Ave W,,Etobicoke Centre,Marcos Marvian,416-459-6363,,,
The Clover School,3180 Bathurst St,,Eglinton-Lawrence,Isabelle Kunicki-Carter,416-781-4449,,,cloverschool.com
The Clover School - High Park,411 Clendenan Ave,,Parkdale-High Park,Isabelle Kunicki,416-938-1163,,,cloverschool.com
The Clover School - High Park Annette Campus,250 Annette St,,Parkdale-High Park,Isabelle Kunicki,416-938-1163,,,cloverschool.com
The Creative Preschool Of East Toronto,"49 Donlands Ave, Lower Level",,Toronto-Danforth,Jennifer Davison,416-465-3865,,,creativepreschool.ca
The Divine Infant Child Care Centre,30 Ingleton Blvd,McCowan/McNicoll,Scarborough North,Naseem Sahar,416-299-1405,,,familydaycare.com
The Giles School,80 Scarsdale Rd,York Mills Rd/Leslie Rd,Don Valley East,Caroline Bernaba,416-446-0825,,,gilesschool.ca
The Junior Academy,2454 Bayview Ave,,Don Valley West,Candace Mohammed,416-425-4567,,,junioracademy.com
The Laurel School,44 Upjohn Rd,,Don Valley East,Alyssa Seichter,416-510-2500,,,laurelschool.ca
The Learning Enrichment Foundation - St Maurice,45 Kingsview Blvd,,Etobicoke North,Maryam Ahmadi,416-551-5155,,,
The Learning Nest Academy,51 Vine Ave,Dundas St W/Keele St,Parkdale-High Park,Michael Meeks,905-332-7539,,,childventures.ca
The Learning Nest Academy,95 Sheppard Ave W,Sheppard Ave W/Yonge St,Willowdale,Melissa Capogna,416-874-4040,,,
The Little Campus,48 Rosemeade Ave,,Etobicoke-Lakeshore,Chinara Johnson,647-372-5437,504,,
The Mildenhall School,35 Ourland Ave,,Etobicoke-Lakeshore,Nicola Gillis,416-259-2822,,,mildenhallmontessori.com
The Montessori Schoolhouse,290 Runnymede Rd,Runnymede Rd/Bloor St W,Parkdale-High Park,Alison Grinton,905-330-7097,,info@themontessorischoolhouse.ca,themontessorischoolhouse.ca
The Munchkin Manor Daycare & Early Learning Centre,1087 Lillian St,Yonge St/Steeles Ave E,Willowdale,Min Young Kim,416-860-5660,,,themunchkinmanor.com
The Munchkin Manor Daycare & Early Learning Centre Inc.,525 Bloor St E,,Toronto Centre,Alexandra Anagnostopoulos,416-925-9993,,,
The Neighbourhood Group Bellevue Child Care,91 Bellevue Ave,,University-Rosedale,Nikki St. John,416-737-9578,110,,
The Neighbourhood Group Canoe Landing Before And After Program,"20 Brunel Crt, Southwest",,Spadina-Fort York,Cristina Desa Elias,416-830-5548,,,sschto.ca
The Neighbourhood Group Canoe Landing Child Care,26 Brunel Crt,,Spadina-Fort York,Diana Colella,437-848-8074,,,sschto.ca
The Neighbourhood Group Community Services Our Lady Of Lourdes,444 Sherbourne St,,Toronto Centre,Roshnie Sukraj,416-854-9889,,,sschto.ca
The Neighbourhood Group Downsview Child Care,2829 Keele St,,York Centre,Julie Chung,647-206-6367,,,
The Neighbourhood Group Harbourfront Child Care,"650 Queens Quay W, 101",Bathurst/Queen Quay,Spadina-Fort York,Fatima Pinheiro,416-925-2103,1756,,
The Neighbourhood Group King Edward Child Care,112 Lippincott St,,University-Rosedale,Cidalia Cutone,416-925-2103,5110,,
The Neighbourhood Group Lord Lansdowne Child Care,33 Robert St,,University-Rosedale,Domenica Brogno,416-839-4830,,,
The Neighbourhood Group Waterfront Child Care Centre,635 Queens Quay W,,Spadina-Fort York,Luljeta Aliu,647-206-4774,,,
The Neighbourhood Group Yonge And Sheppard Child Care Centre,"30 Sheppard Ave E, 313 North East",2nd Floor,Willowdale,Luljeta Toma,647-208-6063,,,sschto.ca
The Orchard Montessori School,375 Dovercourt Rd,Dovercourt/College,Davenport,Holly Venable,416-534-7979,,info@theorchardmontessori.com,theorchardmontessori.com
The Rec Room Before & After School Program,255 Royal York Rd,Royal York/Lake Shore Blvd W,Etobicoke-Lakeshore,Won Lee,416-253-8553,,,
The Scott Mission Child Care Centre,1550 O Connor Dr,,Beaches-East York,Caroline Augustine,416-923-4680,510,,
The South Drive Children's Circle,22 South Dr,Mt. Pleasant/Crescent Rd.,University-Rosedale,Maria Samuels,416-963-9242,,,
The Squirrels' Nest Child Care Centre,1305 Ellesmere Rd,Ellesmere/Brimley,Scarborough Centre,Caroline Charlemagne-Luefong,416-438-6383,,,
The Squirrels' Nest Child Care Centre - North Bendale,29 Aveline Cres,McCowan Rd/Ellesmere,Scarborough-Guildwood,Jessica Lourenco,416-824-2423,,,squirrelsnestchildcare.com
The Toronto Cheder,475 Patricia Ave,,Willowdale,Mechelle Maksimov,416-636-2987,254,,torontocheder.org
The Toronto Heschel School,819 Sheppard Ave W,,York Centre,Andrea Zecharia,416-635-1876,303,,torontoheschel.org
The Village Nursery School,2241 Dundas St W,Dundas St W/Bloor St W,Parkdale-High Park,Emily Foster,647-984-4525,,,
The Village Shul And Learning Centre Of Toronto,1072 Eglinton Ave W,Allan Expy./Eglinton W.,Eglinton-Lawrence,Chevy Fordsham,416-785-1107,,,ourvillageshul.com
The Yonge Street Mission / Davis Centre,270 Gerrard St E,Gerrard/Parliament,Toronto Centre,Debbie Ciccone,416-355-3574,,,ysm.on.ca
Thomas Berry Early Learning & Child Care Centre,3495 Lake Shore Blvd W,Lake Shore Blvd W/Thirtieth St,Etobicoke-Lakeshore,Sheri Bagusoski,416-392-5080,,,toronto.ca/children/telccs
Thorncliffe Park Day Care Centre,48 Thorncliffe Park Dr,Overlea/Thorncliffe Park Dr.,Don Valley West,Donna Robertson,416-423-0880,,,
Thorncliffe Park School Age Day Care Centre,80 Thorncliffe Park Dr,Overlea Blvd./Leaside Bridge,Don Valley West,Donna Robertson,416-423-0880,,,
Three R's Early Learning Centre,225 Wellesworth Dr,Renforth Dr./Rathburn Rd.,Etobicoke Centre,Lucy Herrmann,416-621-7890,,,threerselc.wixsite.com/elc1
Three R's Schoolhouse Inc.,1577 Royal York Rd,Royal York Rd./Lawrence W.,Etobicoke Centre,Lucy Herrmann,416-840-7675,,,
Three Valleys Children's Centre,76 Three Valleys Dr,York Mills/Don Mills,Don Valley East,Gerardo Pachas,416-443-9414,,,
Tiago Avenue Community Child Care,145 Tiago Ave,Victoria Park/St. Clair,Beaches-East York,Deborah Warner,416-285-5644,,,
Tic Toc Day Care Centre Inc,1117 Birchmount Rd,Birchmount/Eglinton,Scarborough Centre,Cam Sook Chun,416-755-1789,,,
Tiki's Day Care Centre,20 Tangreen Crt,Yonge/Steeles,Willowdale,Nadejda Schwartz,416-840-0042,,,
Time For Play Nursery School,"125 Evelyn Cres, 315",,Parkdale-High Park,Audrey Borg,416-769-1550,,,timeforplay.ca
Timothy Eaton Infant & Toddler Centre,35 Glendower Circt,,Scarborough-Agincourt,Nancy Wickson,416-490-0434,,,
Tiny Bumblebees Childcare Inc.,"47 Acacia Rd, 47",Mount Pleasant Rd/Millwood Rd,Toronto-St. Paul's,Cecilia Shelton,416-623-8016,,,tinybumblebees.com
Tiny Explorers Academy,"404 Roncesvalles Ave, 402",,Parkdale-High Park,Stephanie Rachel Melo,416-539-8469,,,tinyexplorersacademy.ca
Tiny Explorers Academy Inc,115 Merton St,Yonge/Davisville,Toronto-St. Paul's,Lindsey Benjamin,416-489-7788,,,tinyexplorersacademy.ca
Tiny Hoppers Park Lawn,20 Park Lawn Rd,,Etobicoke-Lakeshore,Meghan Henwood,437-788-8855,,,tinyhoppers.ca
Tiny Treasure Montessori,627 Burnhamthorpe Rd,Burnhamthorpe/Renforth,Etobicoke Centre,Caroline Pahis,416-622-6443,,,tinytreassuremontessori.ca
Tlc - Tender Loving Care (Cross St.),44 Cross St,Weston/Lawrence W.,York South-Weston,Jannette Best,416-248-5401,,,
Tng Central Neighbourhood House,349 Ontario St,Parliament/Dundas,Toronto Centre,Soni Ahmad,416-925-4363,110,,cnh.on.ca
Today's Child Tomorrow's Future Children's Centre,725 Danforth Rd,Danforth/St.Clair,Scarborough Southwest,Sarah K Brown,416-266-9888,,,
Today's Child Tomorrow's Future Children's Centre (290 Blantyre),290 Blantyre Ave,Kingston Rd./Victoria Pk.,Scarborough Southwest,Theresa Sara,416-698-0069,,,
Topcliff Community Child Care,65 Topcliff Ave,Jane/Finch,Humber River-Black Creek,Natalia Frias,416-630-8960,,,
Top Mandarin Day Care Centre,3143 Sheppard Ave E,Sheppard Ave. E/Victoria Park,Scarborough-Agincourt,Amanda Lin,647-998-0928,,,
Top Mandarin Daycare Centre-2,"4271 Sheppard Ave E, 21",,Scarborough North,Amanda Lin,647-998-0928,,,
Torah Tots Childcare,37 Southbourne Ave,Wilson Ave And Bathurst St,York Centre,Chaya Plotkin,416-633-7659,,,
Torah Tots Preschool,3995 Bathurst St,,York Centre,Chayala Zarchi,647-633-7659,,,torahtots.ca
Toronto Cheder,410 Lawrence Ave W,,Eglinton-Lawrence,Mechelle Maksimov,416-636-2987,254,,torontocheder.org
Toronto Hebrew Congregation/Holy Blossom Temple Preschool,1950 Bathurst St,Bathurst/Eglinton,Toronto-St. Paul's,Wendy Steinberg Himmel,416-789-3291,,,holyblossom.org
Toronto Woods Daycare,3072 Bayview Ave,Finch/Bayview,Willowdale,Jin Ok Kim,416-222-7333,,,torontowoodsdaycare.com
Tot World Child Care Centre,25 Yorkwoods Gate,Jane/Finch,Humber River-Black Creek,Loleta Welch,416-638-3003,,,totworldchildcare.com
Trace Manes School (8603758 Canada Inc),822 Millwood Rd,,Don Valley West,Sue Park,416-917-8030,,,tracemanes.ca
Treasured Moments - Bloor,"3107 Bloor St W, Ste. 104",Bloor W./Royal York,Etobicoke-Lakeshore,Lauren Cuttler,416-234-0303,,,treasuredmomentskids.com
Treasured Moments - Burnhamthorpe,316 Burnhamthorpe Rd,,Etobicoke Centre,Victoria Nouri,416-646-7776,,,treasuredmomentskids.com
Tree Of Life Montessori Academy,255 Finch Ave W,,Willowdale,Simone Pammenter,416-640-5100,,,
Treetop Children's Centre,80 Braemar Ave,Eglinton/Avenue Road,Toronto-St. Paul's,Amy O'Neil,416-484-8702,,,
Trinity Bellwoods Community Children's Group/Care (Crawford Street),155 Crawford St,Queen/Shaw,Spadina-Fort York,Julia C.,416-537-9021,,,
Trust Child Care Inc.,29 Birch Ave,Yonge St/Summerhill,Toronto-St. Paul's,Jordan McGoey,416-594-0100,210,,trustchildcare.ca
Tumpane Child Care Learning Centre,48 Tumpane St,Jane/Wilson,York Centre,Sandra Ditta,416-244-2465,,,icsg.ca
Two Short Storeys,"430 Broadview Ave, 100",Broadview/Victor Ave,Toronto-Danforth,Jamie Campbell,416-902-1300,,,
Ukrainian Co-Op Nursery School,516 The Kingsway,,Etobicoke Centre,Aleksandra Demkowicz,416-763-2922,,,svitlychka.ca
Unicorn Day Care Centre,240 Avenue Rd,,University-Rosedale,Eric Mackey,416-929-6841,,,unicorndaycare.com
Unicorn Day Care Centre Toronto,454 Avenue Rd,Avenue Rd./St. Clair,Toronto-St. Paul's,Eric Mackey,416-929-6841,,,
University City Jr YMCA,453 Sentinel Rd,Finch/Sentinel,Humber River-Black Creek,Paula Defend,416-661-2329,,,
University Of Toronto Childcare On Charles,35 Charles St W,Yonge/Charles,Toronto Centre,Venise Bennett,416-415-2604,,,
University Of Toronto Early Learning Centre - Glen Morris,7 Glen Morris St,Spadina/Bloor,University-Rosedale,Karen Venneri,416-978-6725,,,
University Of Toronto Early Learning Centre - O.I.S.E.,252 Bloor St W,Bloor/Bedford,University-Rosedale,Karen Venneri,416-978-6725,,,
University Settlement Day Care Centre,23 Grange Rd,Dundas/University,Spadina-Fort York,Ida Bertolini,416-598-3444,246,,
Uptown Montessori School,39 Carl Hall Rd,Sheppard Ave W/Keele St,York Centre,Pankhuri Agarwal,647-702-3301,,,uptownmontessori.ca
Uptown Yonge Preschool & Child Development Centre,1 Lord Seaton Rd,York Mills/Yonge,Don Valley West,Abir Khreis,647-549-3676,,,uptownyongepreschool.com
Van Horne Day Care,"201 Van Horne Ave, 1st Floor",Don Mills/Van Horne,Don Valley North,Tabassum Sukhera,416-493-3353,,,
Vedic Roots Montessori Academy (Scarborough),"42 Tuxedo Crt, Unit #1",,Scarborough-Guildwood,Sonam Agarwal,416-916-7005,,,vedicroots.ca
"Victoria Education Centre, Montessori & Child Care",1038 Woodbine Ave,Danforth Ave./Woodbine,Beaches-East York,Siobhan Gibson,416-422-5550,,,victoriaeducationeasttoronto.com
Victoria Park Child Care Centre,15 Wallingford Rd,Victoria Pk./Ellesmere,Don Valley East,Derya Guler Turhal,416-445-0287,,,victoriaparkchildcare.ca
Village Green Child Care Centre,275 Village Green Sq,Kennedy Rd/Sheppard Ave. E.,Scarborough-Agincourt,Ewa Kazmierczak,416-901-5180,,,
Vincent Massey Academy - (521909 Ontario Ltd.),68 Daisy Ave,Lake Shore Blvd W/29th Street,Etobicoke-Lakeshore,Katie Cataford,416-252-3304,225,,vincentmassey.com
Vincent Massey Childcare Center (521909 Ontario Ltd.),432 Horner Ave,Browns Line/Horner,Etobicoke-Lakeshore,Phalyna Suong,416-252-3305,226,,vincentmassey.com
Viva Kids Academy,3420 Yonge St,Yonge St/York Mills Road,Eglinton-Lawrence,Cathy Piedra-McKenzie,416-483-7070,,,vivakidsacademy.ca
Vradenburg Community Child Care Centre,50 Vradenberg Dr,,Scarborough-Agincourt,Maya Magan,416-497-7016,,,
Waldorf Academy Childcare Centre,263 Spadina Rd,,Toronto-St. Paul's,Lucia Amaral,416-962-6447,,,
Waldorf Academy Childcare Centre-Madison,250 Madison Ave,,Toronto-St. Paul's,Lucia Amaral,416-962-6447,,,waldorfacademy.org
Waterclub Jr YMCA,208 Queens Quay W,York/Queen's Quay,Spadina-Fort York,Monica Warner,416-915-7344,,,
Waterfront Montessori Childrens Centre,18 Wyandot Ave,Ward's Ferry/Algonquin Isl.,Spadina-Fort York,Kathleen Roerick,416-203-1017,,,waterfrontmontessori.ca
Waverley Road Montessori School,"646 Kingston Rd, 104-105",,Beaches-East York,Maricela Pliego,647-351-1600,,,
Wedgewood School Age YMCA,5 Swan Ave,Burnhamthorpe/Kipling Ave.,Etobicoke Centre,Irene Grobelny,647-281-4410,,,
Wee Leprechauns Child Care Centre Ltd,235 The Donway E,Lawrence/Don Mills,Don Valley East,Georgina Wallace,416-385-1726,,,weeleprechaunschildcarecentre.com
Wellesley Early Learning Centre - Earlscourt Creche CDI,"495 Sherbourne St, 2nd Floor",Wellesley/Sherbourne,Toronto Centre,Carla Vieira,416-928-9900,,,childdevelop.ca
Wellesworth School Age YMCA,225 Wellesworth Dr,Wellesworth/Renforth,Etobicoke Centre,Irene Grobelny,647-281-4410,,,
West End Jr YMCA,931 College St,College/Dovercourt,Davenport,Maxine Chodorowicz,416-536-1166,440,,ymcatoronto.org
West End Parents Day Care Centre,375 Dovercourt Rd,Dovercourt/College,Davenport,Meg Lewis-Strauch,416-534-6761,,,
West End Parents Day Care Satellite,380 Ossington Ave,College St./Ossington Ave.,Davenport,Meg Lewis-Strauch,416-534-6761,,,
West Hill Centre For Early Learning (Centres For Early Learning Inc.),4010 Lawrence Ave E,Lawrence/Kingston Rd.,Scarborough-Guildwood,Kanika Dunn,416-283-4294,221,,cfel.ca
"Westmount Junior School, Extended Day Program",95 Chapman Rd,,Etobicoke Centre,,416-394-2072,,edp@tdsb.on.ca,tdsb.on.ca/earlyyears/child-care/extended-day-programs
Weston Memorial B & A School Program,200 John St,Jane/Lawrence W.,York South-Weston,Sabrina Sowkey,416-241-5534,,,lefca.org
Westown Early Learning And Child Care Centre,3101 Weston Rd,Weston Rd./Sheppard,Humber River-Black Creek,Diane French,416-392-2440,,,toronto.ca/children/telccs
West Prep Children's Centre Of Toronto,70 Ridge Hill Dr,Bathurst/Eglinton,Eglinton-Lawrence,Rose Bozza,416-783-4302,,,
West Rouge Kindergarten Extended Care Program,401 Friendship Ave,East Ave/Kirkdene Drive,Scarborough-Rouge Park,Sanaa Maher,416-281-0262,230,,
Westside Montessori School,95 Bellevue Ave,,University-Rosedale,Liz Girvan,647-430-5321,,,westsideschool.ca
Westside Montessori School,57 Sylvan Ave,,Davenport,Liz Bovey,647-400-6521,,,westsideschool.ca
Wexford Community Childcare Centre,1 Wayne Ave,Warden/Lawrence,Scarborough Centre,Denise Hosannah,416-759-1965,,,
Wexford Extended Day And School Age Program,1050 Pharmacy Ave,Victoria Park/Lawrence Ave E,Scarborough Centre,Mary Gatti,647-669-6201,,,
Weybourne School,54 Lawrence Ave E,Yonge St/Lawrence Ave E,Don Valley West,Sue Park,416-917-8030,,,weybourne.ca
Whitney Child Centre,119 Rosedale Heights Dr,Mount Pleasant/St. Clair,University-Rosedale,Nafeeza Ali,416-481-0221,,,
William Burgess Jr YMCA,100 Torrens Ave,Pape/O'Connor,Toronto-Danforth,Joanne Tsoulamanis,416-423-5518,,,ymcatoronto.org
William G. Davis Kindergarten Extended Care Program,128 East Ave,East Ave/Lawrence Ave,Scarborough-Rouge Park,Sanaa Maher,416-281-0262,230,,
William G. Miller School Age YMCA,60 Bennett Rd,Lawrence/Bennett,Scarborough-Rouge Park,Marjorie Umali,416-724-1925,,,
Williamson Road Day Care Centre,24 Williamson Rd,Queen/Lee,Beaches-East York,Anna Zizzari,416-691-8861,,,
Willowbrae Academy Bayview Village,432 Sheppard Ave E,Sheppard Ave E/Bayview Ave,Willowdale,Stephanie Da Silva,647-676-6290,,,willowbraechildcarebayview.com
Willowbrae Academy Etobicoke,4975 Dundas St W,Dundas St W/Cabot Ct,Etobicoke-Lakeshore,Laurie Newman,647-508-0444,,,willowbraeacademy.com
"Willow Park Junior Public School, Extended Day Program",45 Windover Dr,Lawrence Ave E/Scarb Golf Rd,Scarborough-Guildwood,,416-394-2072,,edp@tdsb.on.ca,tdsb.on.ca/earlyyears/child-care/extended-day-programs
Willowridge Early Learning & Child Care Centre,30 Earldown Dr,Martingrove/Eglinton Ave. W.,Etobicoke North,Ann Atkinson,416-392-5086,,,toronto.ca/children/telccs
Willow World,288 Cummer Ave,Bayview Ave/Cummer Ave,Willowdale,Abigail Ferreira,647-562-2615,,,
Wilmington Best Child Care Centre,330 Wilmington Ave,Finch/Wilmington,York Centre,Teresa Tomassi,416-633-2665,,,
Wilmington Best Schoolage Satellite Centre,"285 Wilmington Ave, 104",Finch/Wilmington,York Centre,Teresa Tomassi,416-633-2665,,,
Winchester Site Day Care (Central Neighbourhood House),15 Prospect St,Parliament/Wellesley,Toronto Centre,Melyssa Kaarls,416-389-1972,,,cnh.on.ca
Windermere Early Learning Centre,103 The Queensway,The Queensway/Windermere Ave,Parkdale-High Park,Jennifer Ageday,416-763-2734,6502,,
Windermere Kids Inc.,356 Windermere Ave,Jane/Bloor,Parkdale-High Park,Jennifer Ciccarelli,416-761-9772,,,windermerekids.ca
Withrow Child Care Centre,25 Bain Ave,Broadview/Danforth,Toronto-Danforth,Mary To,416-463-1457,,,
Wonderkids Daycare,475 Rathburn Rd,Rathburn Rd/427,Etobicoke Centre,Olena Ternova,647-971-7773,,,
Woodgreen Community Services (Enderby Child Care),118 Enderby Rd,Main/Gerrard,Beaches-East York,Jessica Wong,416-645-6000,1158,,woodgreen.org
Woodgreen Community Services (Leslieville Child Care),254 Leslie St,Dundas/Leslie,Toronto-Danforth,Jessica Wong,416-645-6000,1158,,woodgreen.org
Woodgreen Community Services (Morse Child Care Centre),180 Carlaw Ave,Queen/Carlaw,Toronto-Danforth,Jessica Wong,416-645-6000,1158,,woodgreen.org
Woodgreen Community Services (Riverdale Child Care),1094 Gerrard St E,Gerrard/Leslie,Toronto-Danforth,Jessica Wong,416-645-6000,1158,,woodgreen.org
Woodgreen Community Services (The)(Debbie Yeung Child Care Centre),249 Cosburn Ave,Donlands/Cosburn,Toronto-Danforth,Jessica Wong,416-645-6000,1158,,woodgreen.org
Woodgreen Community Services (Woodfield Child Care Centre),70 Woodfield Rd,Coxwell/Queen,Toronto-Danforth,Jessica Wong,416-645-6000,1158,,woodgreen.org
Woodland Nursery School (Warden Woods Community Centre),1 Firvalley Crt,Warden/St. Clair,Scarborough Southwest,Rasha Alshareef,416-694-1138,163,,wardenwoods.com
Wychwood Tigers Daycare Centre,145 Ava Rd,Eglinton Ave W/Bathurst St,Toronto-St. Paul's,Emma Carvalho,416-532-1841,,,wychwoodtigers.com
Yeshivat Yesodei Hatora,77 Glen Rush Blvd,,Eglinton-Lawrence,Binyomin Septon,416-787-1101,231,,yesodeihatorah.ca
Yes I Can Nursery School,25 Old York Mills Rd,,Don Valley West,Jessica Similien,416-486-4911,,,yesicannurseryschool.com
YMCA Child Development Centre (YMCA),15 Breadalbane St,Yonge/Wellesley,Toronto Centre,Christina Pettos,416-513-1164,1,,
YMCA Of Greater Toronto - St Augustine,98 Shoreham Dr,,Humber River-Black Creek,Kellie Briggs,647-945-7310,,,
Yonge-Churchill Child Care Centre,5350 Yonge St,Yonge/Sheppard,Willowdale,Sandra Santedicola,416-221-4747,,,
Yonge Hearts Child Care Centre,5176 Yonge St,Yonge/Finch,Willowdale,June Karim,416-730-8898,,,
York Heights Child Care Centre,15 York Garden Way,Dufferin/Hwy 401,Temp. Pilot Data,Debbie Nystrom,416-367-1758,,,
York Humber Child Care,100 Emmett Ave,Eglinton W./Jane,York South-Weston,Sabrina Sowkey,416-241-5534,,,lefca.org
York Mills Child Care Centre,1200 York Mills Rd,York Mills/Dvp,Don Valley East,Friba Hakim,416-449-9453,,,
Yorktown Montessori School,349 Kenneth Ave,Yonge/Finch,Willowdale,Grace Park,416-226-6932,,,
York University Co-Operative Day Care Centre,"90 Atkinson Rd, Rm 128",Finch/Keele,Humber River-Black Creek,Ayesha Ysral,416-736-2100,33273,,yorku.ca/daycare
Yorkview Kids Care - North York,130 Yorkview Dr,Bathurst/Finch,Willowdale,Ruth Barber,416-221-7656,,,
Young Talents Academy,"2255 Sheppard Ave E, 100",,Don Valley North,Sayonara Siqueira,905-212-2215,,,youngtalentsacademy.ca
YWCA Bergamot Early Learning,66 Bergamot Ave,Islington Ave./Rexdale Blvd.,Etobicoke North,Karen Hipson,416-748-8179,310,,ywcatoronto.org